<?xml version="1.0" encoding="UTF-8"?>
<gpx version="1.1" creator="etrex-bridge sample" xmlns="http://www.topografix.com/GPX/1/1">
  <metadata><name>Grand Canyon Loop</name><time>2026-05-09T07:30:00Z</time></metadata>
  <wpt lat="-33.635300" lon="150.301100"><name>Neates Glen</name><sym>Flag, Blue</sym></wpt>
  <wpt lat="-33.646900" lon="150.317500"><name>Evans Lookout</name><sym>Flag, Blue</sym></wpt>
  <wpt lat="-33.640900" lon="150.310500"><name>Beauchamp Falls</name><sym>Flag, Blue</sym></wpt>
  <trk><name>Grand Canyon Loop</name><trkseg>
    <trkpt lat="-33.635300" lon="150.301100"><ele>800.0</ele><time>2026-05-09T07:30:00Z</time></trkpt>
    <trkpt lat="-33.635272" lon="150.301248"><ele>803.5</ele><time>2026-05-09T07:30:14Z</time></trkpt>
    <trkpt lat="-33.635252" lon="150.301390"><ele>807.3</ele><time>2026-05-09T07:30:28Z</time></trkpt>
    <trkpt lat="-33.635248" lon="150.301521"><ele>811.1</ele><time>2026-05-09T07:30:42Z</time></trkpt>
    <trkpt lat="-33.635266" lon="150.301636"><ele>815.2</ele><time>2026-05-09T07:30:56Z</time></trkpt>
    <trkpt lat="-33.635310" lon="150.301734"><ele>819.4</ele><time>2026-05-09T07:31:10Z</time></trkpt>
    <trkpt lat="-33.635378" lon="150.301814"><ele>823.8</ele><time>2026-05-09T07:31:24Z</time></trkpt>
    <trkpt lat="-33.635469" lon="150.301879"><ele>828.4</ele><time>2026-05-09T07:31:38Z</time></trkpt>
    <trkpt lat="-33.635578" lon="150.301931"><ele>833.1</ele><time>2026-05-09T07:31:52Z</time></trkpt>
    <trkpt lat="-33.635697" lon="150.301976"><ele>837.9</ele><time>2026-05-09T07:32:06Z</time></trkpt>
    <trkpt lat="-33.635817" lon="150.302020"><ele>842.9</ele><time>2026-05-09T07:32:20Z</time></trkpt>
    <trkpt lat="-33.635929" lon="150.302069"><ele>848.0</ele><time>2026-05-09T07:32:34Z</time></trkpt>
    <trkpt lat="-33.636027" lon="150.302129"><ele>853.3</ele><time>2026-05-09T07:32:48Z</time></trkpt>
    <trkpt lat="-33.636104" lon="150.302204"><ele>858.6</ele><time>2026-05-09T07:33:02Z</time></trkpt>
    <trkpt lat="-33.636156" lon="150.302296"><ele>864.1</ele><time>2026-05-09T07:33:16Z</time></trkpt>
    <trkpt lat="-33.636182" lon="150.302405"><ele>869.7</ele><time>2026-05-09T07:33:30Z</time></trkpt>
    <trkpt lat="-33.636185" lon="150.302531"><ele>875.3</ele><time>2026-05-09T07:33:44Z</time></trkpt>
    <trkpt lat="-33.636170" lon="150.302670"><ele>881.1</ele><time>2026-05-09T07:33:58Z</time></trkpt>
    <trkpt lat="-33.636143" lon="150.302817"><ele>886.9</ele><time>2026-05-09T07:34:12Z</time></trkpt>
    <trkpt lat="-33.636114" lon="150.302966"><ele>892.8</ele><time>2026-05-09T07:34:26Z</time></trkpt>
    <trkpt lat="-33.636090" lon="150.303111"><ele>898.8</ele><time>2026-05-09T07:34:40Z</time></trkpt>
    <trkpt lat="-33.636080" lon="150.303246"><ele>904.8</ele><time>2026-05-09T07:34:54Z</time></trkpt>
    <trkpt lat="-33.636091" lon="150.303366"><ele>910.8</ele><time>2026-05-09T07:35:08Z</time></trkpt>
    <trkpt lat="-33.636126" lon="150.303470"><ele>916.8</ele><time>2026-05-09T07:35:22Z</time></trkpt>
    <trkpt lat="-33.636186" lon="150.303556"><ele>922.9</ele><time>2026-05-09T07:35:36Z</time></trkpt>
    <trkpt lat="-33.636270" lon="150.303625"><ele>929.0</ele><time>2026-05-09T07:35:50Z</time></trkpt>
    <trkpt lat="-33.636374" lon="150.303681"><ele>935.0</ele><time>2026-05-09T07:36:04Z</time></trkpt>
    <trkpt lat="-33.636490" lon="150.303728"><ele>941.1</ele><time>2026-05-09T07:36:18Z</time></trkpt>
    <trkpt lat="-33.636610" lon="150.303772"><ele>947.1</ele><time>2026-05-09T07:36:32Z</time></trkpt>
    <trkpt lat="-33.636726" lon="150.303819"><ele>953.0</ele><time>2026-05-09T07:36:46Z</time></trkpt>
    <trkpt lat="-33.636830" lon="150.303875"><ele>958.9</ele><time>2026-05-09T07:37:00Z</time></trkpt>
    <trkpt lat="-33.636914" lon="150.303944"><ele>964.8</ele><time>2026-05-09T07:37:14Z</time></trkpt>
    <trkpt lat="-33.636974" lon="150.304030"><ele>970.5</ele><time>2026-05-09T07:37:28Z</time></trkpt>
    <trkpt lat="-33.637009" lon="150.304134"><ele>976.2</ele><time>2026-05-09T07:37:42Z</time></trkpt>
    <trkpt lat="-33.637020" lon="150.304254"><ele>981.8</ele><time>2026-05-09T07:37:56Z</time></trkpt>
    <trkpt lat="-33.637010" lon="150.304389"><ele>987.2</ele><time>2026-05-09T07:38:10Z</time></trkpt>
    <trkpt lat="-33.636986" lon="150.304534"><ele>992.6</ele><time>2026-05-09T07:38:24Z</time></trkpt>
    <trkpt lat="-33.636957" lon="150.304683"><ele>997.8</ele><time>2026-05-09T07:38:38Z</time></trkpt>
    <trkpt lat="-33.636930" lon="150.304830"><ele>1002.9</ele><time>2026-05-09T07:38:52Z</time></trkpt>
    <trkpt lat="-33.636915" lon="150.304969"><ele>1007.8</ele><time>2026-05-09T07:39:06Z</time></trkpt>
    <trkpt lat="-33.636918" lon="150.305095"><ele>1012.6</ele><time>2026-05-09T07:39:20Z</time></trkpt>
    <trkpt lat="-33.636944" lon="150.305204"><ele>1017.2</ele><time>2026-05-09T07:39:34Z</time></trkpt>
    <trkpt lat="-33.636996" lon="150.305296"><ele>1021.6</ele><time>2026-05-09T07:39:48Z</time></trkpt>
    <trkpt lat="-33.637073" lon="150.305371"><ele>1025.8</ele><time>2026-05-09T07:40:02Z</time></trkpt>
    <trkpt lat="-33.637171" lon="150.305431"><ele>1029.8</ele><time>2026-05-09T07:40:16Z</time></trkpt>
    <trkpt lat="-33.637283" lon="150.305480"><ele>1033.7</ele><time>2026-05-09T07:40:30Z</time></trkpt>
    <trkpt lat="-33.637403" lon="150.305524"><ele>1037.3</ele><time>2026-05-09T07:40:44Z</time></trkpt>
    <trkpt lat="-33.637522" lon="150.305569"><ele>1040.7</ele><time>2026-05-09T07:40:58Z</time></trkpt>
    <trkpt lat="-33.637631" lon="150.305621"><ele>1043.9</ele><time>2026-05-09T07:41:12Z</time></trkpt>
    <trkpt lat="-33.637722" lon="150.305686"><ele>1046.8</ele><time>2026-05-09T07:41:26Z</time></trkpt>
    <trkpt lat="-33.637790" lon="150.305766"><ele>1049.6</ele><time>2026-05-09T07:41:40Z</time></trkpt>
    <trkpt lat="-33.637834" lon="150.305864"><ele>1052.0</ele><time>2026-05-09T07:41:54Z</time></trkpt>
    <trkpt lat="-33.637852" lon="150.305979"><ele>1054.3</ele><time>2026-05-09T07:42:08Z</time></trkpt>
    <trkpt lat="-33.637848" lon="150.306110"><ele>1056.3</ele><time>2026-05-09T07:42:22Z</time></trkpt>
    <trkpt lat="-33.637828" lon="150.306252"><ele>1058.0</ele><time>2026-05-09T07:42:36Z</time></trkpt>
    <trkpt lat="-33.637615" lon="150.306530"><ele>940.1</ele><time>2026-05-09T07:42:50Z</time></trkpt>
    <trkpt lat="-33.637642" lon="150.306625"><ele>941.0</ele><time>2026-05-09T07:43:04Z</time></trkpt>
    <trkpt lat="-33.637694" lon="150.306702"><ele>942.1</ele><time>2026-05-09T07:43:18Z</time></trkpt>
    <trkpt lat="-33.637772" lon="150.306762"><ele>943.2</ele><time>2026-05-09T07:43:32Z</time></trkpt>
    <trkpt lat="-33.637872" lon="150.306805"><ele>944.4</ele><time>2026-05-09T07:43:46Z</time></trkpt>
    <trkpt lat="-33.637991" lon="150.306837"><ele>945.8</ele><time>2026-05-09T07:44:00Z</time></trkpt>
    <trkpt lat="-33.638119" lon="150.306860"><ele>947.2</ele><time>2026-05-09T07:44:14Z</time></trkpt>
    <trkpt lat="-33.638251" lon="150.306883"><ele>948.7</ele><time>2026-05-09T07:44:28Z</time></trkpt>
    <trkpt lat="-33.638375" lon="150.306909"><ele>950.3</ele><time>2026-05-09T07:44:42Z</time></trkpt>
    <trkpt lat="-33.638485" lon="150.306946"><ele>951.9</ele><time>2026-05-09T07:44:56Z</time></trkpt>
    <trkpt lat="-33.638575" lon="150.306998"><ele>953.7</ele><time>2026-05-09T07:45:10Z</time></trkpt>
    <trkpt lat="-33.638640" lon="150.307066"><ele>955.5</ele><time>2026-05-09T07:45:24Z</time></trkpt>
    <trkpt lat="-33.638679" lon="150.307153"><ele>957.4</ele><time>2026-05-09T07:45:38Z</time></trkpt>
    <trkpt lat="-33.638695" lon="150.307256"><ele>959.3</ele><time>2026-05-09T07:45:52Z</time></trkpt>
    <trkpt lat="-33.638692" lon="150.307372"><ele>961.3</ele><time>2026-05-09T07:46:06Z</time></trkpt>
    <trkpt lat="-33.638677" lon="150.307496"><ele>963.3</ele><time>2026-05-09T07:46:20Z</time></trkpt>
    <trkpt lat="-33.638658" lon="150.307623"><ele>965.4</ele><time>2026-05-09T07:46:34Z</time></trkpt>
    <trkpt lat="-33.638644" lon="150.307747"><ele>967.5</ele><time>2026-05-09T07:46:48Z</time></trkpt>
    <trkpt lat="-33.638644" lon="150.307861"><ele>969.6</ele><time>2026-05-09T07:47:02Z</time></trkpt>
    <trkpt lat="-33.638664" lon="150.307961"><ele>971.8</ele><time>2026-05-09T07:47:16Z</time></trkpt>
    <trkpt lat="-33.638707" lon="150.308045"><ele>974.0</ele><time>2026-05-09T07:47:30Z</time></trkpt>
    <trkpt lat="-33.638776" lon="150.308110"><ele>976.1</ele><time>2026-05-09T07:47:44Z</time></trkpt>
    <trkpt lat="-33.638870" lon="150.308159"><ele>978.3</ele><time>2026-05-09T07:47:58Z</time></trkpt>
    <trkpt lat="-33.638983" lon="150.308194"><ele>980.4</ele><time>2026-05-09T07:48:12Z</time></trkpt>
    <trkpt lat="-33.639109" lon="150.308220"><ele>982.6</ele><time>2026-05-09T07:48:26Z</time></trkpt>
    <trkpt lat="-33.639240" lon="150.308242"><ele>984.6</ele><time>2026-05-09T07:48:40Z</time></trkpt>
    <trkpt lat="-33.639368" lon="150.308266"><ele>986.7</ele><time>2026-05-09T07:48:54Z</time></trkpt>
    <trkpt lat="-33.639484" lon="150.308299"><ele>988.7</ele><time>2026-05-09T07:49:08Z</time></trkpt>
    <trkpt lat="-33.639581" lon="150.308345"><ele>990.6</ele><time>2026-05-09T07:49:22Z</time></trkpt>
    <trkpt lat="-33.639654" lon="150.308408"><ele>992.5</ele><time>2026-05-09T07:49:36Z</time></trkpt>
    <trkpt lat="-33.639702" lon="150.308489"><ele>994.3</ele><time>2026-05-09T07:49:50Z</time></trkpt>
    <trkpt lat="-33.639725" lon="150.308586"><ele>996.0</ele><time>2026-05-09T07:50:04Z</time></trkpt>
    <trkpt lat="-33.639728" lon="150.308699"><ele>997.6</ele><time>2026-05-09T07:50:18Z</time></trkpt>
    <trkpt lat="-33.639716" lon="150.308821"><ele>999.1</ele><time>2026-05-09T07:50:32Z</time></trkpt>
    <trkpt lat="-33.639697" lon="150.308948"><ele>1000.5</ele><time>2026-05-09T07:50:46Z</time></trkpt>
    <trkpt lat="-33.639681" lon="150.309073"><ele>1001.8</ele><time>2026-05-09T07:51:00Z</time></trkpt>
    <trkpt lat="-33.639676" lon="150.309191"><ele>1003.0</ele><time>2026-05-09T07:51:14Z</time></trkpt>
    <trkpt lat="-33.639688" lon="150.309296"><ele>1004.0</ele><time>2026-05-09T07:51:28Z</time></trkpt>
    <trkpt lat="-33.639723" lon="150.309386"><ele>1004.9</ele><time>2026-05-09T07:51:42Z</time></trkpt>
    <trkpt lat="-33.639784" lon="150.309457"><ele>1005.6</ele><time>2026-05-09T07:51:56Z</time></trkpt>
    <trkpt lat="-33.639870" lon="150.309511"><ele>1006.2</ele><time>2026-05-09T07:52:10Z</time></trkpt>
    <trkpt lat="-33.639977" lon="150.309550"><ele>1006.5</ele><time>2026-05-09T07:52:24Z</time></trkpt>
    <trkpt lat="-33.640099" lon="150.309578"><ele>1006.8</ele><time>2026-05-09T07:52:38Z</time></trkpt>
    <trkpt lat="-33.640230" lon="150.309601"><ele>1006.8</ele><time>2026-05-09T07:52:52Z</time></trkpt>
    <trkpt lat="-33.640360" lon="150.309624"><ele>1006.7</ele><time>2026-05-09T07:53:06Z</time></trkpt>
    <trkpt lat="-33.640480" lon="150.309654"><ele>1006.3</ele><time>2026-05-09T07:53:20Z</time></trkpt>
    <trkpt lat="-33.640584" lon="150.309695"><ele>1005.8</ele><time>2026-05-09T07:53:34Z</time></trkpt>
    <trkpt lat="-33.640666" lon="150.309752"><ele>1005.1</ele><time>2026-05-09T07:53:48Z</time></trkpt>
    <trkpt lat="-33.640722" lon="150.309826"><ele>1004.2</ele><time>2026-05-09T07:54:02Z</time></trkpt>
    <trkpt lat="-33.640753" lon="150.309919"><ele>1003.0</ele><time>2026-05-09T07:54:16Z</time></trkpt>
    <trkpt lat="-33.640762" lon="150.310026"><ele>1001.7</ele><time>2026-05-09T07:54:30Z</time></trkpt>
    <trkpt lat="-33.640754" lon="150.310146"><ele>1000.1</ele><time>2026-05-09T07:54:44Z</time></trkpt>
    <trkpt lat="-33.640737" lon="150.310272"><ele>998.4</ele><time>2026-05-09T07:54:58Z</time></trkpt>
    <trkpt lat="-33.640719" lon="150.310399"><ele>996.4</ele><time>2026-05-09T07:55:12Z</time></trkpt>
    <trkpt lat="-33.640709" lon="150.310520"><ele>994.2</ele><time>2026-05-09T07:55:26Z</time></trkpt>
    <trkpt lat="-33.640700" lon="150.310640"><ele>872.4</ele><time>2026-05-09T07:55:40Z</time></trkpt>
    <trkpt lat="-33.640802" lon="150.310670"><ele>869.4</ele><time>2026-05-09T07:55:54Z</time></trkpt>
    <trkpt lat="-33.640923" lon="150.310688"><ele>866.7</ele><time>2026-05-09T07:56:08Z</time></trkpt>
    <trkpt lat="-33.641055" lon="150.310697"><ele>864.0</ele><time>2026-05-09T07:56:22Z</time></trkpt>
    <trkpt lat="-33.641190" lon="150.310705"><ele>861.5</ele><time>2026-05-09T07:56:36Z</time></trkpt>
    <trkpt lat="-33.641319" lon="150.310717"><ele>859.2</ele><time>2026-05-09T07:56:50Z</time></trkpt>
    <trkpt lat="-33.641434" lon="150.310738"><ele>856.9</ele><time>2026-05-09T07:57:04Z</time></trkpt>
    <trkpt lat="-33.641529" lon="150.310773"><ele>854.8</ele><time>2026-05-09T07:57:18Z</time></trkpt>
    <trkpt lat="-33.641600" lon="150.310826"><ele>852.9</ele><time>2026-05-09T07:57:32Z</time></trkpt>
    <trkpt lat="-33.641645" lon="150.310897"><ele>851.1</ele><time>2026-05-09T07:57:46Z</time></trkpt>
    <trkpt lat="-33.641666" lon="150.310984"><ele>849.4</ele><time>2026-05-09T07:58:00Z</time></trkpt>
    <trkpt lat="-33.641668" lon="150.311084"><ele>847.8</ele><time>2026-05-09T07:58:14Z</time></trkpt>
    <trkpt lat="-33.641657" lon="150.311194"><ele>846.4</ele><time>2026-05-09T07:58:28Z</time></trkpt>
    <trkpt lat="-33.641642" lon="150.311306"><ele>845.1</ele><time>2026-05-09T07:58:42Z</time></trkpt>
    <trkpt lat="-33.641632" lon="150.311416"><ele>843.9</ele><time>2026-05-09T07:58:56Z</time></trkpt>
    <trkpt lat="-33.641634" lon="150.311516"><ele>842.9</ele><time>2026-05-09T07:59:10Z</time></trkpt>
    <trkpt lat="-33.641655" lon="150.311604"><ele>841.9</ele><time>2026-05-09T07:59:24Z</time></trkpt>
    <trkpt lat="-33.641700" lon="150.311674"><ele>841.0</ele><time>2026-05-09T07:59:38Z</time></trkpt>
    <trkpt lat="-33.641771" lon="150.311726"><ele>840.3</ele><time>2026-05-09T07:59:52Z</time></trkpt>
    <trkpt lat="-33.641866" lon="150.311762"><ele>839.6</ele><time>2026-05-09T08:00:06Z</time></trkpt>
    <trkpt lat="-33.641981" lon="150.311783"><ele>839.0</ele><time>2026-05-09T08:00:20Z</time></trkpt>
    <trkpt lat="-33.642110" lon="150.311795"><ele>838.5</ele><time>2026-05-09T08:00:34Z</time></trkpt>
    <trkpt lat="-33.642245" lon="150.311802"><ele>838.1</ele><time>2026-05-09T08:00:48Z</time></trkpt>
    <trkpt lat="-33.642377" lon="150.311812"><ele>837.7</ele><time>2026-05-09T08:01:02Z</time></trkpt>
    <trkpt lat="-33.642498" lon="150.311829"><ele>837.4</ele><time>2026-05-09T08:01:16Z</time></trkpt>
    <trkpt lat="-33.642600" lon="150.311860"><ele>837.1</ele><time>2026-05-09T08:01:30Z</time></trkpt>
    <trkpt lat="-33.642679" lon="150.311907"><ele>836.9</ele><time>2026-05-09T08:01:44Z</time></trkpt>
    <trkpt lat="-33.642733" lon="150.311971"><ele>836.7</ele><time>2026-05-09T08:01:58Z</time></trkpt>
    <trkpt lat="-33.642762" lon="150.312053"><ele>836.6</ele><time>2026-05-09T08:02:12Z</time></trkpt>
    <trkpt lat="-33.642769" lon="150.312150"><ele>836.4</ele><time>2026-05-09T08:02:26Z</time></trkpt>
    <trkpt lat="-33.642762" lon="150.312257"><ele>836.3</ele><time>2026-05-09T08:02:40Z</time></trkpt>
    <trkpt lat="-33.642747" lon="150.312369"><ele>836.2</ele><time>2026-05-09T08:02:54Z</time></trkpt>
    <trkpt lat="-33.642734" lon="150.312480"><ele>836.0</ele><time>2026-05-09T08:03:08Z</time></trkpt>
    <trkpt lat="-33.642731" lon="150.312584"><ele>835.9</ele><time>2026-05-09T08:03:22Z</time></trkpt>
    <trkpt lat="-33.642745" lon="150.312676"><ele>835.8</ele><time>2026-05-09T08:03:36Z</time></trkpt>
    <trkpt lat="-33.642782" lon="150.312752"><ele>835.6</ele><time>2026-05-09T08:03:50Z</time></trkpt>
    <trkpt lat="-33.642844" lon="150.312811"><ele>835.4</ele><time>2026-05-09T08:04:04Z</time></trkpt>
    <trkpt lat="-33.642932" lon="150.312852"><ele>835.1</ele><time>2026-05-09T08:04:18Z</time></trkpt>
    <trkpt lat="-33.643041" lon="150.312877"><ele>834.8</ele><time>2026-05-09T08:04:32Z</time></trkpt>
    <trkpt lat="-33.643166" lon="150.312892"><ele>834.4</ele><time>2026-05-09T08:04:46Z</time></trkpt>
    <trkpt lat="-33.643300" lon="150.312900"><ele>834.0</ele><time>2026-05-09T08:05:00Z</time></trkpt>
    <trkpt lat="-33.643434" lon="150.312908"><ele>833.5</ele><time>2026-05-09T08:05:14Z</time></trkpt>
    <trkpt lat="-33.643559" lon="150.312922"><ele>832.9</ele><time>2026-05-09T08:05:28Z</time></trkpt>
    <trkpt lat="-33.643668" lon="150.312948"><ele>832.3</ele><time>2026-05-09T08:05:42Z</time></trkpt>
    <trkpt lat="-33.643756" lon="150.312989"><ele>831.6</ele><time>2026-05-09T08:05:56Z</time></trkpt>
    <trkpt lat="-33.643818" lon="150.313048"><ele>830.7</ele><time>2026-05-09T08:06:10Z</time></trkpt>
    <trkpt lat="-33.643854" lon="150.313124"><ele>829.8</ele><time>2026-05-09T08:06:24Z</time></trkpt>
    <trkpt lat="-33.643869" lon="150.313216"><ele>828.8</ele><time>2026-05-09T08:06:38Z</time></trkpt>
    <trkpt lat="-33.643865" lon="150.313320"><ele>827.7</ele><time>2026-05-09T08:06:52Z</time></trkpt>
    <trkpt lat="-33.643852" lon="150.313431"><ele>826.5</ele><time>2026-05-09T08:07:06Z</time></trkpt>
    <trkpt lat="-33.643838" lon="150.313544"><ele>825.1</ele><time>2026-05-09T08:07:20Z</time></trkpt>
    <trkpt lat="-33.643831" lon="150.313651"><ele>823.7</ele><time>2026-05-09T08:07:34Z</time></trkpt>
    <trkpt lat="-33.643838" lon="150.313747"><ele>822.1</ele><time>2026-05-09T08:07:48Z</time></trkpt>
    <trkpt lat="-33.643867" lon="150.313829"><ele>820.4</ele><time>2026-05-09T08:08:02Z</time></trkpt>
    <trkpt lat="-33.643921" lon="150.313893"><ele>818.6</ele><time>2026-05-09T08:08:16Z</time></trkpt>
    <trkpt lat="-33.644169" lon="150.313822"><ele>697.3</ele><time>2026-05-09T08:08:30Z</time></trkpt>
    <trkpt lat="-33.644293" lon="150.313837"><ele>695.0</ele><time>2026-05-09T08:08:44Z</time></trkpt>
    <trkpt lat="-33.644412" lon="150.313855"><ele>692.9</ele><time>2026-05-09T08:08:58Z</time></trkpt>
    <trkpt lat="-33.644518" lon="150.313882"><ele>691.1</ele><time>2026-05-09T08:09:12Z</time></trkpt>
    <trkpt lat="-33.644604" lon="150.313924"><ele>689.5</ele><time>2026-05-09T08:09:26Z</time></trkpt>
    <trkpt lat="-33.644665" lon="150.313982"><ele>688.1</ele><time>2026-05-09T08:09:40Z</time></trkpt>
    <trkpt lat="-33.644702" lon="150.314059"><ele>687.0</ele><time>2026-05-09T08:09:54Z</time></trkpt>
    <trkpt lat="-33.644714" lon="150.314152"><ele>686.1</ele><time>2026-05-09T08:10:08Z</time></trkpt>
    <trkpt lat="-33.644706" lon="150.314259"><ele>685.4</ele><time>2026-05-09T08:10:22Z</time></trkpt>
    <trkpt lat="-33.644685" lon="150.314375"><ele>685.0</ele><time>2026-05-09T08:10:36Z</time></trkpt>
    <trkpt lat="-33.644659" lon="150.314495"><ele>684.8</ele><time>2026-05-09T08:10:50Z</time></trkpt>
    <trkpt lat="-33.644637" lon="150.314612"><ele>684.8</ele><time>2026-05-09T08:11:04Z</time></trkpt>
    <trkpt lat="-33.644627" lon="150.314721"><ele>685.0</ele><time>2026-05-09T08:11:18Z</time></trkpt>
    <trkpt lat="-33.644635" lon="150.314816"><ele>685.5</ele><time>2026-05-09T08:11:32Z</time></trkpt>
    <trkpt lat="-33.644668" lon="150.314896"><ele>686.1</ele><time>2026-05-09T08:11:46Z</time></trkpt>
    <trkpt lat="-33.644725" lon="150.314957"><ele>687.0</ele><time>2026-05-09T08:12:00Z</time></trkpt>
    <trkpt lat="-33.644808" lon="150.315001"><ele>688.0</ele><time>2026-05-09T08:12:14Z</time></trkpt>
    <trkpt lat="-33.644911" lon="150.315030"><ele>689.3</ele><time>2026-05-09T08:12:28Z</time></trkpt>
    <trkpt lat="-33.645028" lon="150.315050"><ele>690.7</ele><time>2026-05-09T08:12:42Z</time></trkpt>
    <trkpt lat="-33.645152" lon="150.315065"><ele>692.3</ele><time>2026-05-09T08:12:56Z</time></trkpt>
    <trkpt lat="-33.645273" lon="150.315081"><ele>694.1</ele><time>2026-05-09T08:13:10Z</time></trkpt>
    <trkpt lat="-33.645384" lon="150.315105"><ele>696.0</ele><time>2026-05-09T08:13:24Z</time></trkpt>
    <trkpt lat="-33.645478" lon="150.315142"><ele>698.1</ele><time>2026-05-09T08:13:38Z</time></trkpt>
    <trkpt lat="-33.645548" lon="150.315194"><ele>700.4</ele><time>2026-05-09T08:13:52Z</time></trkpt>
    <trkpt lat="-33.645592" lon="150.315265"><ele>702.7</ele><time>2026-05-09T08:14:06Z</time></trkpt>
    <trkpt lat="-33.645612" lon="150.315352"><ele>705.2</ele><time>2026-05-09T08:14:20Z</time></trkpt>
    <trkpt lat="-33.645610" lon="150.315455"><ele>707.8</ele><time>2026-05-09T08:14:34Z</time></trkpt>
    <trkpt lat="-33.645593" lon="150.315569"><ele>710.6</ele><time>2026-05-09T08:14:48Z</time></trkpt>
    <trkpt lat="-33.645568" lon="150.315688"><ele>713.4</ele><time>2026-05-09T08:15:02Z</time></trkpt>
    <trkpt lat="-33.645544" lon="150.315807"><ele>716.3</ele><time>2026-05-09T08:15:16Z</time></trkpt>
    <trkpt lat="-33.645528" lon="150.315919"><ele>719.3</ele><time>2026-05-09T08:15:30Z</time></trkpt>
    <trkpt lat="-33.645530" lon="150.316020"><ele>722.3</ele><time>2026-05-09T08:15:44Z</time></trkpt>
    <trkpt lat="-33.645554" lon="150.316105"><ele>725.5</ele><time>2026-05-09T08:15:58Z</time></trkpt>
    <trkpt lat="-33.645603" lon="150.316172"><ele>728.6</ele><time>2026-05-09T08:16:12Z</time></trkpt>
    <trkpt lat="-33.645678" lon="150.316221"><ele>731.8</ele><time>2026-05-09T08:16:26Z</time></trkpt>
    <trkpt lat="-33.645774" lon="150.316255"><ele>735.1</ele><time>2026-05-09T08:16:40Z</time></trkpt>
    <trkpt lat="-33.645888" lon="150.316278"><ele>738.4</ele><time>2026-05-09T08:16:54Z</time></trkpt>
    <trkpt lat="-33.646010" lon="150.316293"><ele>741.6</ele><time>2026-05-09T08:17:08Z</time></trkpt>
    <trkpt lat="-33.646134" lon="150.316309"><ele>744.9</ele><time>2026-05-09T08:17:22Z</time></trkpt>
    <trkpt lat="-33.646249" lon="150.316329"><ele>748.2</ele><time>2026-05-09T08:17:36Z</time></trkpt>
    <trkpt lat="-33.646349" lon="150.316361"><ele>751.5</ele><time>2026-05-09T08:17:50Z</time></trkpt>
    <trkpt lat="-33.646427" lon="150.316408"><ele>754.7</ele><time>2026-05-09T08:18:04Z</time></trkpt>
    <trkpt lat="-33.646480" lon="150.316472"><ele>757.9</ele><time>2026-05-09T08:18:18Z</time></trkpt>
    <trkpt lat="-33.646508" lon="150.316555"><ele>761.1</ele><time>2026-05-09T08:18:32Z</time></trkpt>
    <trkpt lat="-33.646513" lon="150.316653"><ele>764.3</ele><time>2026-05-09T08:18:46Z</time></trkpt>
    <trkpt lat="-33.646500" lon="150.316763"><ele>767.3</ele><time>2026-05-09T08:19:00Z</time></trkpt>
    <trkpt lat="-33.646477" lon="150.316882"><ele>770.4</ele><time>2026-05-09T08:19:14Z</time></trkpt>
    <trkpt lat="-33.646451" lon="150.317001"><ele>773.3</ele><time>2026-05-09T08:19:28Z</time></trkpt>
    <trkpt lat="-33.646432" lon="150.317116"><ele>776.2</ele><time>2026-05-09T08:19:42Z</time></trkpt>
    <trkpt lat="-33.646427" lon="150.317221"><ele>779.0</ele><time>2026-05-09T08:19:56Z</time></trkpt>
    <trkpt lat="-33.646443" lon="150.317311"><ele>781.7</ele><time>2026-05-09T08:20:10Z</time></trkpt>
    <trkpt lat="-33.646484" lon="150.317385"><ele>784.4</ele><time>2026-05-09T08:20:24Z</time></trkpt>
    <trkpt lat="-33.646550" lon="150.317440"><ele>786.9</ele><time>2026-05-09T08:20:38Z</time></trkpt>
    <trkpt lat="-33.646640" lon="150.317479"><ele>789.4</ele><time>2026-05-09T08:20:52Z</time></trkpt>
    <trkpt lat="-33.646748" lon="150.317504"><ele>791.7</ele><time>2026-05-09T08:21:06Z</time></trkpt>
    <trkpt lat="-33.647066" lon="150.317383"><ele>674.6</ele><time>2026-05-09T08:21:20Z</time></trkpt>
    <trkpt lat="-33.647062" lon="150.317424"><ele>676.4</ele><time>2026-05-09T08:21:34Z</time></trkpt>
    <trkpt lat="-33.647033" lon="150.317481"><ele>678.5</ele><time>2026-05-09T08:21:48Z</time></trkpt>
    <trkpt lat="-33.646978" lon="150.317555"><ele>680.9</ele><time>2026-05-09T08:22:02Z</time></trkpt>
    <trkpt lat="-33.646899" lon="150.317647"><ele>683.5</ele><time>2026-05-09T08:22:16Z</time></trkpt>
    <trkpt lat="-33.646800" lon="150.317753"><ele>686.3</ele><time>2026-05-09T08:22:30Z</time></trkpt>
    <trkpt lat="-33.646688" lon="150.317869"><ele>689.4</ele><time>2026-05-09T08:22:44Z</time></trkpt>
    <trkpt lat="-33.646569" lon="150.317989"><ele>692.7</ele><time>2026-05-09T08:22:58Z</time></trkpt>
    <trkpt lat="-33.646454" lon="150.318106"><ele>696.2</ele><time>2026-05-09T08:23:12Z</time></trkpt>
    <trkpt lat="-33.646349" lon="150.318216"><ele>700.0</ele><time>2026-05-09T08:23:26Z</time></trkpt>
    <trkpt lat="-33.646263" lon="150.318313"><ele>704.0</ele><time>2026-05-09T08:23:40Z</time></trkpt>
    <trkpt lat="-33.646201" lon="150.318393"><ele>708.2</ele><time>2026-05-09T08:23:54Z</time></trkpt>
    <trkpt lat="-33.646164" lon="150.318456"><ele>712.6</ele><time>2026-05-09T08:24:08Z</time></trkpt>
    <trkpt lat="-33.646151" lon="150.318502"><ele>717.2</ele><time>2026-05-09T08:24:22Z</time></trkpt>
    <trkpt lat="-33.646160" lon="150.318532"><ele>722.0</ele><time>2026-05-09T08:24:36Z</time></trkpt>
    <trkpt lat="-33.646184" lon="150.318552"><ele>726.9</ele><time>2026-05-09T08:24:50Z</time></trkpt>
    <trkpt lat="-33.646215" lon="150.318567"><ele>732.1</ele><time>2026-05-09T08:25:04Z</time></trkpt>
    <trkpt lat="-33.646244" lon="150.318583"><ele>737.4</ele><time>2026-05-09T08:25:18Z</time></trkpt>
    <trkpt lat="-33.646264" lon="150.318607"><ele>742.8</ele><time>2026-05-09T08:25:32Z</time></trkpt>
    <trkpt lat="-33.646266" lon="150.318642"><ele>748.4</ele><time>2026-05-09T08:25:46Z</time></trkpt>
    <trkpt lat="-33.646245" lon="150.318693"><ele>754.2</ele><time>2026-05-09T08:26:00Z</time></trkpt>
    <trkpt lat="-33.646199" lon="150.318762"><ele>760.1</ele><time>2026-05-09T08:26:14Z</time></trkpt>
    <trkpt lat="-33.646128" lon="150.318848"><ele>766.0</ele><time>2026-05-09T08:26:28Z</time></trkpt>
    <trkpt lat="-33.646035" lon="150.318950"><ele>772.1</ele><time>2026-05-09T08:26:42Z</time></trkpt>
    <trkpt lat="-33.645926" lon="150.319063"><ele>778.3</ele><time>2026-05-09T08:26:56Z</time></trkpt>
    <trkpt lat="-33.645809" lon="150.319182"><ele>784.6</ele><time>2026-05-09T08:27:10Z</time></trkpt>
    <trkpt lat="-33.645691" lon="150.319301"><ele>791.0</ele><time>2026-05-09T08:27:24Z</time></trkpt>
    <trkpt lat="-33.645582" lon="150.319414"><ele>797.4</ele><time>2026-05-09T08:27:38Z</time></trkpt>
    <trkpt lat="-33.645490" lon="150.319516"><ele>803.8</ele><time>2026-05-09T08:27:52Z</time></trkpt>
    <trkpt lat="-33.645419" lon="150.319602"><ele>810.3</ele><time>2026-05-09T08:28:06Z</time></trkpt>
    <trkpt lat="-33.645373" lon="150.319671"><ele>816.8</ele><time>2026-05-09T08:28:20Z</time></trkpt>
    <trkpt lat="-33.645353" lon="150.319722"><ele>823.4</ele><time>2026-05-09T08:28:34Z</time></trkpt>
    <trkpt lat="-33.645355" lon="150.319757"><ele>829.9</ele><time>2026-05-09T08:28:48Z</time></trkpt>
    <trkpt lat="-33.645375" lon="150.319780"><ele>836.4</ele><time>2026-05-09T08:29:02Z</time></trkpt>
    <trkpt lat="-33.645404" lon="150.319796"><ele>843.0</ele><time>2026-05-09T08:29:16Z</time></trkpt>
    <trkpt lat="-33.645435" lon="150.319811"><ele>849.4</ele><time>2026-05-09T08:29:30Z</time></trkpt>
    <trkpt lat="-33.645459" lon="150.319831"><ele>855.9</ele><time>2026-05-09T08:29:44Z</time></trkpt>
    <trkpt lat="-33.645467" lon="150.319862"><ele>862.3</ele><time>2026-05-09T08:29:58Z</time></trkpt>
    <trkpt lat="-33.645455" lon="150.319907"><ele>868.6</ele><time>2026-05-09T08:30:12Z</time></trkpt>
    <trkpt lat="-33.645417" lon="150.319970"><ele>874.8</ele><time>2026-05-09T08:30:26Z</time></trkpt>
    <trkpt lat="-33.645355" lon="150.320051"><ele>881.0</ele><time>2026-05-09T08:30:40Z</time></trkpt>
    <trkpt lat="-33.645268" lon="150.320148"><ele>887.1</ele><time>2026-05-09T08:30:54Z</time></trkpt>
    <trkpt lat="-33.645164" lon="150.320258"><ele>893.0</ele><time>2026-05-09T08:31:08Z</time></trkpt>
    <trkpt lat="-33.645048" lon="150.320375"><ele>898.9</ele><time>2026-05-09T08:31:22Z</time></trkpt>
    <trkpt lat="-33.644930" lon="150.320495"><ele>904.6</ele><time>2026-05-09T08:31:36Z</time></trkpt>
    <trkpt lat="-33.644817" lon="150.320611"><ele>910.2</ele><time>2026-05-09T08:31:50Z</time></trkpt>
    <trkpt lat="-33.644718" lon="150.320717"><ele>915.7</ele><time>2026-05-09T08:32:04Z</time></trkpt>
    <trkpt lat="-33.644640" lon="150.320808"><ele>921.0</ele><time>2026-05-09T08:32:18Z</time></trkpt>
    <trkpt lat="-33.644586" lon="150.320883"><ele>926.1</ele><time>2026-05-09T08:32:32Z</time></trkpt>
    <trkpt lat="-33.644557" lon="150.320940"><ele>931.1</ele><time>2026-05-09T08:32:46Z</time></trkpt>
    <trkpt lat="-33.644552" lon="150.320980"><ele>935.9</ele><time>2026-05-09T08:33:00Z</time></trkpt>
    <trkpt lat="-33.644567" lon="150.321006"><ele>940.6</ele><time>2026-05-09T08:33:14Z</time></trkpt>
    <trkpt lat="-33.644594" lon="150.321024"><ele>945.0</ele><time>2026-05-09T08:33:28Z</time></trkpt>
    <trkpt lat="-33.644625" lon="150.321039"><ele>949.3</ele><time>2026-05-09T08:33:42Z</time></trkpt>
    <trkpt lat="-33.644652" lon="150.321057"><ele>953.4</ele><time>2026-05-09T08:33:56Z</time></trkpt>
    <trkpt lat="-33.644711" lon="150.321052"><ele>837.9</ele><time>2026-05-09T08:34:10Z</time></trkpt>
    <trkpt lat="-33.644598" lon="150.321063"><ele>841.3</ele><time>2026-05-09T08:34:24Z</time></trkpt>
    <trkpt lat="-33.644464" lon="150.321088"><ele>844.9</ele><time>2026-05-09T08:34:38Z</time></trkpt>
    <trkpt lat="-33.644315" lon="150.321123"><ele>848.6</ele><time>2026-05-09T08:34:52Z</time></trkpt>
    <trkpt lat="-33.644161" lon="150.321163"><ele>852.5</ele><time>2026-05-09T08:35:06Z</time></trkpt>
    <trkpt lat="-33.644008" lon="150.321201"><ele>856.5</ele><time>2026-05-09T08:35:20Z</time></trkpt>
    <trkpt lat="-33.643866" lon="150.321231"><ele>860.6</ele><time>2026-05-09T08:35:34Z</time></trkpt>
    <trkpt lat="-33.643742" lon="150.321249"><ele>864.9</ele><time>2026-05-09T08:35:48Z</time></trkpt>
    <trkpt lat="-33.643641" lon="150.321251"><ele>869.3</ele><time>2026-05-09T08:36:02Z</time></trkpt>
    <trkpt lat="-33.643566" lon="150.321235"><ele>873.9</ele><time>2026-05-09T08:36:16Z</time></trkpt>
    <trkpt lat="-33.643515" lon="150.321202"><ele>878.5</ele><time>2026-05-09T08:36:30Z</time></trkpt>
    <trkpt lat="-33.643486" lon="150.321154"><ele>883.3</ele><time>2026-05-09T08:36:44Z</time></trkpt>
    <trkpt lat="-33.643472" lon="150.321095"><ele>888.2</ele><time>2026-05-09T08:36:58Z</time></trkpt>
    <trkpt lat="-33.643467" lon="150.321030"><ele>893.2</ele><time>2026-05-09T08:37:12Z</time></trkpt>
    <trkpt lat="-33.643460" lon="150.320966"><ele>898.3</ele><time>2026-05-09T08:37:26Z</time></trkpt>
    <trkpt lat="-33.643444" lon="150.320908"><ele>903.4</ele><time>2026-05-09T08:37:40Z</time></trkpt>
    <trkpt lat="-33.643412" lon="150.320862"><ele>908.7</ele><time>2026-05-09T08:37:54Z</time></trkpt>
    <trkpt lat="-33.643357" lon="150.320832"><ele>914.0</ele><time>2026-05-09T08:38:08Z</time></trkpt>
    <trkpt lat="-33.643277" lon="150.320819"><ele>919.3</ele><time>2026-05-09T08:38:22Z</time></trkpt>
    <trkpt lat="-33.643171" lon="150.320824"><ele>924.7</ele><time>2026-05-09T08:38:36Z</time></trkpt>
    <trkpt lat="-33.643044" lon="150.320845"><ele>930.1</ele><time>2026-05-09T08:38:50Z</time></trkpt>
    <trkpt lat="-33.642899" lon="150.320877"><ele>935.6</ele><time>2026-05-09T08:39:04Z</time></trkpt>
    <trkpt lat="-33.642746" lon="150.320916"><ele>941.1</ele><time>2026-05-09T08:39:18Z</time></trkpt>
    <trkpt lat="-33.642592" lon="150.320955"><ele>946.6</ele><time>2026-05-09T08:39:32Z</time></trkpt>
    <trkpt lat="-33.642445" lon="150.320989"><ele>952.0</ele><time>2026-05-09T08:39:46Z</time></trkpt>
    <trkpt lat="-33.642315" lon="150.321012"><ele>957.5</ele><time>2026-05-09T08:40:00Z</time></trkpt>
    <trkpt lat="-33.642206" lon="150.321019"><ele>963.0</ele><time>2026-05-09T08:40:14Z</time></trkpt>
    <trkpt lat="-33.642121" lon="150.321009"><ele>968.4</ele><time>2026-05-09T08:40:28Z</time></trkpt>
    <trkpt lat="-33.642063" lon="150.320982"><ele>973.7</ele><time>2026-05-09T08:40:42Z</time></trkpt>
    <trkpt lat="-33.642027" lon="150.320938"><ele>979.0</ele><time>2026-05-09T08:40:56Z</time></trkpt>
    <trkpt lat="-33.642009" lon="150.320882"><ele>984.2</ele><time>2026-05-09T08:41:10Z</time></trkpt>
    <trkpt lat="-33.642002" lon="150.320818"><ele>989.4</ele><time>2026-05-09T08:41:24Z</time></trkpt>
    <trkpt lat="-33.641996" lon="150.320753"><ele>994.5</ele><time>2026-05-09T08:41:38Z</time></trkpt>
    <trkpt lat="-33.641985" lon="150.320693"><ele>999.4</ele><time>2026-05-09T08:41:52Z</time></trkpt>
    <trkpt lat="-33.641958" lon="150.320643"><ele>1004.3</ele><time>2026-05-09T08:42:06Z</time></trkpt>
    <trkpt lat="-33.641911" lon="150.320607"><ele>1009.0</ele><time>2026-05-09T08:42:20Z</time></trkpt>
    <trkpt lat="-33.641840" lon="150.320588"><ele>1013.6</ele><time>2026-05-09T08:42:34Z</time></trkpt>
    <trkpt lat="-33.641742" lon="150.320587"><ele>1018.0</ele><time>2026-05-09T08:42:48Z</time></trkpt>
    <trkpt lat="-33.641622" lon="150.320603"><ele>1022.3</ele><time>2026-05-09T08:43:02Z</time></trkpt>
    <trkpt lat="-33.641482" lon="150.320632"><ele>1026.5</ele><time>2026-05-09T08:43:16Z</time></trkpt>
    <trkpt lat="-33.641331" lon="150.320669"><ele>1030.4</ele><time>2026-05-09T08:43:30Z</time></trkpt>
    <trkpt lat="-33.641176" lon="150.320709"><ele>1034.2</ele><time>2026-05-09T08:43:44Z</time></trkpt>
    <trkpt lat="-33.641026" lon="150.320745"><ele>1037.8</ele><time>2026-05-09T08:43:58Z</time></trkpt>
    <trkpt lat="-33.640889" lon="150.320772"><ele>1041.2</ele><time>2026-05-09T08:44:12Z</time></trkpt>
    <trkpt lat="-33.640773" lon="150.320785"><ele>1044.4</ele><time>2026-05-09T08:44:26Z</time></trkpt>
    <trkpt lat="-33.640680" lon="150.320781"><ele>1047.4</ele><time>2026-05-09T08:44:40Z</time></trkpt>
    <trkpt lat="-33.640613" lon="150.320759"><ele>1050.2</ele><time>2026-05-09T08:44:54Z</time></trkpt>
    <trkpt lat="-33.640570" lon="150.320721"><ele>1052.7</ele><time>2026-05-09T08:45:08Z</time></trkpt>
    <trkpt lat="-33.640547" lon="150.320668"><ele>1055.0</ele><time>2026-05-09T08:45:22Z</time></trkpt>
    <trkpt lat="-33.640537" lon="150.320607"><ele>1057.1</ele><time>2026-05-09T08:45:36Z</time></trkpt>
    <trkpt lat="-33.640532" lon="150.320541"><ele>1059.0</ele><time>2026-05-09T08:45:50Z</time></trkpt>
    <trkpt lat="-33.640523" lon="150.320479"><ele>1060.5</ele><time>2026-05-09T08:46:04Z</time></trkpt>
    <trkpt lat="-33.640502" lon="150.320425"><ele>1061.9</ele><time>2026-05-09T08:46:18Z</time></trkpt>
    <trkpt lat="-33.640463" lon="150.320383"><ele>1063.0</ele><time>2026-05-09T08:46:32Z</time></trkpt>
    <trkpt lat="-33.640400" lon="150.320359"><ele>1063.8</ele><time>2026-05-09T08:46:46Z</time></trkpt>
    <trkpt lat="-33.640161" lon="150.320457"><ele>945.0</ele><time>2026-05-09T08:47:00Z</time></trkpt>
    <trkpt lat="-33.640029" lon="150.320427"><ele>945.0</ele><time>2026-05-09T08:47:14Z</time></trkpt>
    <trkpt lat="-33.639898" lon="150.320397"><ele>945.2</ele><time>2026-05-09T08:47:28Z</time></trkpt>
    <trkpt lat="-33.639776" lon="150.320359"><ele>945.4</ele><time>2026-05-09T08:47:42Z</time></trkpt>
    <trkpt lat="-33.639672" lon="150.320309"><ele>945.7</ele><time>2026-05-09T08:47:56Z</time></trkpt>
    <trkpt lat="-33.639591" lon="150.320243"><ele>946.1</ele><time>2026-05-09T08:48:10Z</time></trkpt>
    <trkpt lat="-33.639535" lon="150.320160"><ele>946.6</ele><time>2026-05-09T08:48:24Z</time></trkpt>
    <trkpt lat="-33.639505" lon="150.320059"><ele>947.2</ele><time>2026-05-09T08:48:38Z</time></trkpt>
    <trkpt lat="-33.639496" lon="150.319943"><ele>947.9</ele><time>2026-05-09T08:48:52Z</time></trkpt>
    <trkpt lat="-33.639503" lon="150.319815"><ele>948.7</ele><time>2026-05-09T08:49:06Z</time></trkpt>
    <trkpt lat="-33.639519" lon="150.319681"><ele>949.5</ele><time>2026-05-09T08:49:20Z</time></trkpt>
    <trkpt lat="-33.639534" lon="150.319548"><ele>950.4</ele><time>2026-05-09T08:49:34Z</time></trkpt>
    <trkpt lat="-33.639541" lon="150.319420"><ele>951.4</ele><time>2026-05-09T08:49:48Z</time></trkpt>
    <trkpt lat="-33.639532" lon="150.319304"><ele>952.4</ele><time>2026-05-09T08:50:02Z</time></trkpt>
    <trkpt lat="-33.639501" lon="150.319204"><ele>953.5</ele><time>2026-05-09T08:50:16Z</time></trkpt>
    <trkpt lat="-33.639445" lon="150.319120"><ele>954.7</ele><time>2026-05-09T08:50:30Z</time></trkpt>
    <trkpt lat="-33.639363" lon="150.319055"><ele>955.9</ele><time>2026-05-09T08:50:44Z</time></trkpt>
    <trkpt lat="-33.639259" lon="150.319005"><ele>957.1</ele><time>2026-05-09T08:50:58Z</time></trkpt>
    <trkpt lat="-33.639138" lon="150.318968"><ele>958.4</ele><time>2026-05-09T08:51:12Z</time></trkpt>
    <trkpt lat="-33.639007" lon="150.318937"><ele>959.7</ele><time>2026-05-09T08:51:26Z</time></trkpt>
    <trkpt lat="-33.638874" lon="150.318907"><ele>961.0</ele><time>2026-05-09T08:51:40Z</time></trkpt>
    <trkpt lat="-33.638748" lon="150.318873"><ele>962.3</ele><time>2026-05-09T08:51:54Z</time></trkpt>
    <trkpt lat="-33.638638" lon="150.318827"><ele>963.6</ele><time>2026-05-09T08:52:08Z</time></trkpt>
    <trkpt lat="-33.638549" lon="150.318767"><ele>964.9</ele><time>2026-05-09T08:52:22Z</time></trkpt>
    <trkpt lat="-33.638484" lon="150.318690"><ele>966.2</ele><time>2026-05-09T08:52:36Z</time></trkpt>
    <trkpt lat="-33.638446" lon="150.318594"><ele>967.5</ele><time>2026-05-09T08:52:50Z</time></trkpt>
    <trkpt lat="-33.638430" lon="150.318483"><ele>968.7</ele><time>2026-05-09T08:53:04Z</time></trkpt>
    <trkpt lat="-33.638432" lon="150.318359"><ele>969.9</ele><time>2026-05-09T08:53:18Z</time></trkpt>
    <trkpt lat="-33.638446" lon="150.318226"><ele>971.1</ele><time>2026-05-09T08:53:32Z</time></trkpt>
    <trkpt lat="-33.638463" lon="150.318092"><ele>972.2</ele><time>2026-05-09T08:53:46Z</time></trkpt>
    <trkpt lat="-33.638474" lon="150.317962"><ele>973.2</ele><time>2026-05-09T08:54:00Z</time></trkpt>
    <trkpt lat="-33.638471" lon="150.317841"><ele>974.1</ele><time>2026-05-09T08:54:14Z</time></trkpt>
    <trkpt lat="-33.638448" lon="150.317735"><ele>975.0</ele><time>2026-05-09T08:54:28Z</time></trkpt>
    <trkpt lat="-33.638400" lon="150.317646"><ele>975.8</ele><time>2026-05-09T08:54:42Z</time></trkpt>
    <trkpt lat="-33.638327" lon="150.317575"><ele>976.5</ele><time>2026-05-09T08:54:56Z</time></trkpt>
    <trkpt lat="-33.638230" lon="150.317520"><ele>977.1</ele><time>2026-05-09T08:55:10Z</time></trkpt>
    <trkpt lat="-33.638113" lon="150.317479"><ele>977.5</ele><time>2026-05-09T08:55:24Z</time></trkpt>
    <trkpt lat="-33.637984" lon="150.317447"><ele>977.9</ele><time>2026-05-09T08:55:38Z</time></trkpt>
    <trkpt lat="-33.637851" lon="150.317418"><ele>978.1</ele><time>2026-05-09T08:55:52Z</time></trkpt>
    <trkpt lat="-33.637722" lon="150.317385"><ele>978.2</ele><time>2026-05-09T08:56:06Z</time></trkpt>
    <trkpt lat="-33.637606" lon="150.317344"><ele>978.1</ele><time>2026-05-09T08:56:20Z</time></trkpt>
    <trkpt lat="-33.637509" lon="150.317289"><ele>977.9</ele><time>2026-05-09T08:56:34Z</time></trkpt>
    <trkpt lat="-33.637436" lon="150.317218"><ele>977.5</ele><time>2026-05-09T08:56:48Z</time></trkpt>
    <trkpt lat="-33.637389" lon="150.317128"><ele>977.0</ele><time>2026-05-09T08:57:02Z</time></trkpt>
    <trkpt lat="-33.637366" lon="150.317022"><ele>976.3</ele><time>2026-05-09T08:57:16Z</time></trkpt>
    <trkpt lat="-33.637363" lon="150.316901"><ele>975.4</ele><time>2026-05-09T08:57:30Z</time></trkpt>
    <trkpt lat="-33.637374" lon="150.316771"><ele>974.4</ele><time>2026-05-09T08:57:44Z</time></trkpt>
    <trkpt lat="-33.637391" lon="150.316637"><ele>973.1</ele><time>2026-05-09T08:57:58Z</time></trkpt>
    <trkpt lat="-33.637405" lon="150.316504"><ele>971.7</ele><time>2026-05-09T08:58:12Z</time></trkpt>
    <trkpt lat="-33.637407" lon="150.316380"><ele>970.1</ele><time>2026-05-09T08:58:26Z</time></trkpt>
    <trkpt lat="-33.637391" lon="150.316269"><ele>968.3</ele><time>2026-05-09T08:58:40Z</time></trkpt>
    <trkpt lat="-33.637352" lon="150.316174"><ele>966.3</ele><time>2026-05-09T08:58:54Z</time></trkpt>
    <trkpt lat="-33.637287" lon="150.316097"><ele>964.1</ele><time>2026-05-09T08:59:08Z</time></trkpt>
    <trkpt lat="-33.637198" lon="150.316037"><ele>961.8</ele><time>2026-05-09T08:59:22Z</time></trkpt>
    <trkpt lat="-33.637087" lon="150.315992"><ele>959.2</ele><time>2026-05-09T08:59:36Z</time></trkpt>
    <trkpt lat="-33.636755" lon="150.316101"><ele>837.0</ele><time>2026-05-09T08:59:50Z</time></trkpt>
    <trkpt lat="-33.636664" lon="150.316025"><ele>833.8</ele><time>2026-05-09T09:00:04Z</time></trkpt>
    <trkpt lat="-33.636596" lon="150.315934"><ele>830.7</ele><time>2026-05-09T09:00:18Z</time></trkpt>
    <trkpt lat="-33.636552" lon="150.315824"><ele>827.7</ele><time>2026-05-09T09:00:32Z</time></trkpt>
    <trkpt lat="-33.636534" lon="150.315698"><ele>824.9</ele><time>2026-05-09T09:00:46Z</time></trkpt>
    <trkpt lat="-33.636538" lon="150.315555"><ele>822.3</ele><time>2026-05-09T09:01:00Z</time></trkpt>
    <trkpt lat="-33.636559" lon="150.315401"><ele>819.9</ele><time>2026-05-09T09:01:14Z</time></trkpt>
    <trkpt lat="-33.636589" lon="150.315240"><ele>817.6</ele><time>2026-05-09T09:01:28Z</time></trkpt>
    <trkpt lat="-33.636619" lon="150.315079"><ele>815.4</ele><time>2026-05-09T09:01:42Z</time></trkpt>
    <trkpt lat="-33.636642" lon="150.314924"><ele>813.4</ele><time>2026-05-09T09:01:56Z</time></trkpt>
    <trkpt lat="-33.636649" lon="150.314779"><ele>811.6</ele><time>2026-05-09T09:02:10Z</time></trkpt>
    <trkpt lat="-33.636634" lon="150.314650"><ele>809.9</ele><time>2026-05-09T09:02:24Z</time></trkpt>
    <trkpt lat="-33.636595" lon="150.314538"><ele>808.4</ele><time>2026-05-09T09:02:38Z</time></trkpt>
    <trkpt lat="-33.636530" lon="150.314444"><ele>807.0</ele><time>2026-05-09T09:02:52Z</time></trkpt>
    <trkpt lat="-33.636442" lon="150.314366"><ele>805.8</ele><time>2026-05-09T09:03:06Z</time></trkpt>
    <trkpt lat="-33.636336" lon="150.314300"><ele>804.7</ele><time>2026-05-09T09:03:20Z</time></trkpt>
    <trkpt lat="-33.636220" lon="150.314242"><ele>803.7</ele><time>2026-05-09T09:03:34Z</time></trkpt>
    <trkpt lat="-33.636102" lon="150.314185"><ele>802.8</ele><time>2026-05-09T09:03:48Z</time></trkpt>
    <trkpt lat="-33.635990" lon="150.314124"><ele>802.1</ele><time>2026-05-09T09:04:02Z</time></trkpt>
    <trkpt lat="-33.635893" lon="150.314052"><ele>801.4</ele><time>2026-05-09T09:04:16Z</time></trkpt>
    <trkpt lat="-33.635816" lon="150.313966"><ele>800.9</ele><time>2026-05-09T09:04:30Z</time></trkpt>
    <trkpt lat="-33.635764" lon="150.313863"><ele>800.5</ele><time>2026-05-09T09:04:44Z</time></trkpt>
    <trkpt lat="-33.635738" lon="150.313742"><ele>800.2</ele><time>2026-05-09T09:04:58Z</time></trkpt>
    <trkpt lat="-33.635735" lon="150.313604"><ele>799.9</ele><time>2026-05-09T09:05:12Z</time></trkpt>
    <trkpt lat="-33.635751" lon="150.313453"><ele>799.8</ele><time>2026-05-09T09:05:26Z</time></trkpt>
    <trkpt lat="-33.635778" lon="150.313294"><ele>799.7</ele><time>2026-05-09T09:05:40Z</time></trkpt>
    <trkpt lat="-33.635810" lon="150.313133"><ele>799.7</ele><time>2026-05-09T09:05:54Z</time></trkpt>
    <trkpt lat="-33.635836" lon="150.312975"><ele>799.7</ele><time>2026-05-09T09:06:08Z</time></trkpt>
    <trkpt lat="-33.635849" lon="150.312826"><ele>799.8</ele><time>2026-05-09T09:06:22Z</time></trkpt>
    <trkpt lat="-33.635842" lon="150.312691"><ele>799.9</ele><time>2026-05-09T09:06:36Z</time></trkpt>
    <trkpt lat="-33.635811" lon="150.312573"><ele>800.1</ele><time>2026-05-09T09:06:50Z</time></trkpt>
    <trkpt lat="-33.635754" lon="150.312473"><ele>800.2</ele><time>2026-05-09T09:07:04Z</time></trkpt>
    <trkpt lat="-33.635674" lon="150.312390"><ele>800.4</ele><time>2026-05-09T09:07:18Z</time></trkpt>
    <trkpt lat="-33.635573" lon="150.312321"><ele>800.6</ele><time>2026-05-09T09:07:32Z</time></trkpt>
    <trkpt lat="-33.635459" lon="150.312261"><ele>800.8</ele><time>2026-05-09T09:07:46Z</time></trkpt>
    <trkpt lat="-33.635341" lon="150.312204"><ele>801.0</ele><time>2026-05-09T09:08:00Z</time></trkpt>
    <trkpt lat="-33.635226" lon="150.312145"><ele>801.2</ele><time>2026-05-09T09:08:14Z</time></trkpt>
    <trkpt lat="-33.635123" lon="150.312077"><ele>801.4</ele><time>2026-05-09T09:08:28Z</time></trkpt>
    <trkpt lat="-33.635039" lon="150.311997"><ele>801.5</ele><time>2026-05-09T09:08:42Z</time></trkpt>
    <trkpt lat="-33.634979" lon="150.311899"><ele>801.6</ele><time>2026-05-09T09:08:56Z</time></trkpt>
    <trkpt lat="-33.634944" lon="150.311784"><ele>801.6</ele><time>2026-05-09T09:09:10Z</time></trkpt>
    <trkpt lat="-33.634933" lon="150.311652"><ele>801.6</ele><time>2026-05-09T09:09:24Z</time></trkpt>
    <trkpt lat="-33.634944" lon="150.311505"><ele>801.6</ele><time>2026-05-09T09:09:38Z</time></trkpt>
    <trkpt lat="-33.634968" lon="150.311348"><ele>801.5</ele><time>2026-05-09T09:09:52Z</time></trkpt>
    <trkpt lat="-33.634999" lon="150.311186"><ele>801.3</ele><time>2026-05-09T09:10:06Z</time></trkpt>
    <trkpt lat="-33.635028" lon="150.311027"><ele>801.0</ele><time>2026-05-09T09:10:20Z</time></trkpt>
    <trkpt lat="-33.635046" lon="150.310874"><ele>800.7</ele><time>2026-05-09T09:10:34Z</time></trkpt>
    <trkpt lat="-33.635047" lon="150.310734"><ele>800.3</ele><time>2026-05-09T09:10:48Z</time></trkpt>
    <trkpt lat="-33.635024" lon="150.310611"><ele>799.8</ele><time>2026-05-09T09:11:02Z</time></trkpt>
    <trkpt lat="-33.634976" lon="150.310505"><ele>799.2</ele><time>2026-05-09T09:11:16Z</time></trkpt>
    <trkpt lat="-33.634903" lon="150.310416"><ele>798.5</ele><time>2026-05-09T09:11:30Z</time></trkpt>
    <trkpt lat="-33.634808" lon="150.310343"><ele>797.7</ele><time>2026-05-09T09:11:44Z</time></trkpt>
    <trkpt lat="-33.634698" lon="150.310280"><ele>796.8</ele><time>2026-05-09T09:11:58Z</time></trkpt>
    <trkpt lat="-33.634580" lon="150.310223"><ele>795.8</ele><time>2026-05-09T09:12:12Z</time></trkpt>
    <trkpt lat="-33.634463" lon="150.310165"><ele>794.7</ele><time>2026-05-09T09:12:26Z</time></trkpt>
    <trkpt lat="-33.634282" lon="150.310152"><ele>674.1</ele><time>2026-05-09T09:12:40Z</time></trkpt>
    <trkpt lat="-33.634297" lon="150.310036"><ele>672.5</ele><time>2026-05-09T09:12:54Z</time></trkpt>
    <trkpt lat="-33.634334" lon="150.309904"><ele>671.2</ele><time>2026-05-09T09:13:08Z</time></trkpt>
    <trkpt lat="-33.634388" lon="150.309759"><ele>670.1</ele><time>2026-05-09T09:13:22Z</time></trkpt>
    <trkpt lat="-33.634452" lon="150.309608"><ele>669.3</ele><time>2026-05-09T09:13:36Z</time></trkpt>
    <trkpt lat="-33.634517" lon="150.309456"><ele>668.7</ele><time>2026-05-09T09:13:50Z</time></trkpt>
    <trkpt lat="-33.634575" lon="150.309309"><ele>668.3</ele><time>2026-05-09T09:14:04Z</time></trkpt>
    <trkpt lat="-33.634618" lon="150.309173"><ele>668.2</ele><time>2026-05-09T09:14:18Z</time></trkpt>
    <trkpt lat="-33.634640" lon="150.309051"><ele>668.4</ele><time>2026-05-09T09:14:32Z</time></trkpt>
    <trkpt lat="-33.634637" lon="150.308947"><ele>668.8</ele><time>2026-05-09T09:14:46Z</time></trkpt>
    <trkpt lat="-33.634609" lon="150.308860"><ele>669.4</ele><time>2026-05-09T09:15:00Z</time></trkpt>
    <trkpt lat="-33.634557" lon="150.308790"><ele>670.3</ele><time>2026-05-09T09:15:14Z</time></trkpt>
    <trkpt lat="-33.634487" lon="150.308732"><ele>671.3</ele><time>2026-05-09T09:15:28Z</time></trkpt>
    <trkpt lat="-33.634406" lon="150.308683"><ele>672.6</ele><time>2026-05-09T09:15:42Z</time></trkpt>
    <trkpt lat="-33.634322" lon="150.308635"><ele>674.2</ele><time>2026-05-09T09:15:56Z</time></trkpt>
    <trkpt lat="-33.634244" lon="150.308584"><ele>675.9</ele><time>2026-05-09T09:16:10Z</time></trkpt>
    <trkpt lat="-33.634180" lon="150.308522"><ele>677.8</ele><time>2026-05-09T09:16:24Z</time></trkpt>
    <trkpt lat="-33.634136" lon="150.308447"><ele>680.0</ele><time>2026-05-09T09:16:38Z</time></trkpt>
    <trkpt lat="-33.634116" lon="150.308354"><ele>682.3</ele><time>2026-05-09T09:16:52Z</time></trkpt>
    <trkpt lat="-33.634123" lon="150.308243"><ele>684.8</ele><time>2026-05-09T09:17:06Z</time></trkpt>
    <trkpt lat="-33.634152" lon="150.308116"><ele>687.4</ele><time>2026-05-09T09:17:20Z</time></trkpt>
    <trkpt lat="-33.634202" lon="150.307975"><ele>690.3</ele><time>2026-05-09T09:17:34Z</time></trkpt>
    <trkpt lat="-33.634263" lon="150.307826"><ele>693.3</ele><time>2026-05-09T09:17:48Z</time></trkpt>
    <trkpt lat="-33.634329" lon="150.307673"><ele>696.4</ele><time>2026-05-09T09:18:02Z</time></trkpt>
    <trkpt lat="-33.634391" lon="150.307524"><ele>699.7</ele><time>2026-05-09T09:18:16Z</time></trkpt>
    <trkpt lat="-33.634439" lon="150.307383"><ele>703.1</ele><time>2026-05-09T09:18:30Z</time></trkpt>
    <trkpt lat="-33.634469" lon="150.307256"><ele>706.6</ele><time>2026-05-09T09:18:44Z</time></trkpt>
    <trkpt lat="-33.634474" lon="150.307146"><ele>710.2</ele><time>2026-05-09T09:18:58Z</time></trkpt>
    <trkpt lat="-33.634454" lon="150.307054"><ele>714.0</ele><time>2026-05-09T09:19:12Z</time></trkpt>
    <trkpt lat="-33.634410" lon="150.306978"><ele>717.8</ele><time>2026-05-09T09:19:26Z</time></trkpt>
    <trkpt lat="-33.634346" lon="150.306917"><ele>721.7</ele><time>2026-05-09T09:19:40Z</time></trkpt>
    <trkpt lat="-33.634267" lon="150.306866"><ele>725.6</ele><time>2026-05-09T09:19:54Z</time></trkpt>
    <trkpt lat="-33.634183" lon="150.306818"><ele>729.7</ele><time>2026-05-09T09:20:08Z</time></trkpt>
    <trkpt lat="-33.634102" lon="150.306768"><ele>733.7</ele><time>2026-05-09T09:20:22Z</time></trkpt>
    <trkpt lat="-33.634033" lon="150.306711"><ele>737.9</ele><time>2026-05-09T09:20:36Z</time></trkpt>
    <trkpt lat="-33.633981" lon="150.306640"><ele>742.0</ele><time>2026-05-09T09:20:50Z</time></trkpt>
    <trkpt lat="-33.633953" lon="150.306553"><ele>746.2</ele><time>2026-05-09T09:21:04Z</time></trkpt>
    <trkpt lat="-33.633951" lon="150.306449"><ele>750.3</ele><time>2026-05-09T09:21:18Z</time></trkpt>
    <trkpt lat="-33.633973" lon="150.306327"><ele>754.5</ele><time>2026-05-09T09:21:32Z</time></trkpt>
    <trkpt lat="-33.634017" lon="150.306190"><ele>758.7</ele><time>2026-05-09T09:21:46Z</time></trkpt>
    <trkpt lat="-33.634075" lon="150.306043"><ele>762.8</ele><time>2026-05-09T09:22:00Z</time></trkpt>
    <trkpt lat="-33.634141" lon="150.305891"><ele>766.9</ele><time>2026-05-09T09:22:14Z</time></trkpt>
    <trkpt lat="-33.634204" lon="150.305740"><ele>771.0</ele><time>2026-05-09T09:22:28Z</time></trkpt>
    <trkpt lat="-33.634258" lon="150.305596"><ele>775.0</ele><time>2026-05-09T09:22:42Z</time></trkpt>
    <trkpt lat="-33.634295" lon="150.305464"><ele>779.0</ele><time>2026-05-09T09:22:56Z</time></trkpt>
    <trkpt lat="-33.634309" lon="150.305347"><ele>782.9</ele><time>2026-05-09T09:23:10Z</time></trkpt>
    <trkpt lat="-33.634297" lon="150.305249"><ele>786.8</ele><time>2026-05-09T09:23:24Z</time></trkpt>
    <trkpt lat="-33.634261" lon="150.305168"><ele>790.6</ele><time>2026-05-09T09:23:38Z</time></trkpt>
    <trkpt lat="-33.634202" lon="150.305103"><ele>794.2</ele><time>2026-05-09T09:23:52Z</time></trkpt>
    <trkpt lat="-33.634128" lon="150.305049"><ele>797.9</ele><time>2026-05-09T09:24:06Z</time></trkpt>
    <trkpt lat="-33.634045" lon="150.305000"><ele>801.4</ele><time>2026-05-09T09:24:20Z</time></trkpt>
    <trkpt lat="-33.633962" lon="150.304952"><ele>804.8</ele><time>2026-05-09T09:24:34Z</time></trkpt>
    <trkpt lat="-33.633887" lon="150.304898"><ele>808.1</ele><time>2026-05-09T09:24:48Z</time></trkpt>
    <trkpt lat="-33.633829" lon="150.304832"><ele>811.3</ele><time>2026-05-09T09:25:02Z</time></trkpt>
    <trkpt lat="-33.633793" lon="150.304751"><ele>814.4</ele><time>2026-05-09T09:25:16Z</time></trkpt>
    <trkpt lat="-33.633909" lon="150.304563"><ele>698.0</ele><time>2026-05-09T09:25:30Z</time></trkpt>
    <trkpt lat="-33.634006" lon="150.304451"><ele>700.5</ele><time>2026-05-09T09:25:44Z</time></trkpt>
    <trkpt lat="-33.634104" lon="150.304337"><ele>703.3</ele><time>2026-05-09T09:25:58Z</time></trkpt>
    <trkpt lat="-33.634196" lon="150.304227"><ele>706.4</ele><time>2026-05-09T09:26:12Z</time></trkpt>
    <trkpt lat="-33.634273" lon="150.304128"><ele>709.6</ele><time>2026-05-09T09:26:26Z</time></trkpt>
    <trkpt lat="-33.634329" lon="150.304043"><ele>713.1</ele><time>2026-05-09T09:26:40Z</time></trkpt>
    <trkpt lat="-33.634361" lon="150.303975"><ele>716.8</ele><time>2026-05-09T09:26:54Z</time></trkpt>
    <trkpt lat="-33.634368" lon="150.303926"><ele>720.8</ele><time>2026-05-09T09:27:08Z</time></trkpt>
    <trkpt lat="-33.634351" lon="150.303892"><ele>724.9</ele><time>2026-05-09T09:27:22Z</time></trkpt>
    <trkpt lat="-33.634315" lon="150.303872"><ele>729.3</ele><time>2026-05-09T09:27:36Z</time></trkpt>
    <trkpt lat="-33.634267" lon="150.303860"><ele>733.8</ele><time>2026-05-09T09:27:50Z</time></trkpt>
    <trkpt lat="-33.634216" lon="150.303851"><ele>738.6</ele><time>2026-05-09T09:28:04Z</time></trkpt>
    <trkpt lat="-33.634169" lon="150.303838"><ele>743.5</ele><time>2026-05-09T09:28:18Z</time></trkpt>
    <trkpt lat="-33.634136" lon="150.303816"><ele>748.6</ele><time>2026-05-09T09:28:32Z</time></trkpt>
    <trkpt lat="-33.634123" lon="150.303780"><ele>753.9</ele><time>2026-05-09T09:28:46Z</time></trkpt>
    <trkpt lat="-33.634135" lon="150.303727"><ele>759.4</ele><time>2026-05-09T09:29:00Z</time></trkpt>
    <trkpt lat="-33.634171" lon="150.303656"><ele>765.0</ele><time>2026-05-09T09:29:14Z</time></trkpt>
    <trkpt lat="-33.634232" lon="150.303568"><ele>770.8</ele><time>2026-05-09T09:29:28Z</time></trkpt>
    <trkpt lat="-33.634313" lon="150.303466"><ele>776.7</ele><time>2026-05-09T09:29:42Z</time></trkpt>
    <trkpt lat="-33.634406" lon="150.303355"><ele>782.7</ele><time>2026-05-09T09:29:56Z</time></trkpt>
    <trkpt lat="-33.634505" lon="150.303241"><ele>788.8</ele><time>2026-05-09T09:30:10Z</time></trkpt>
    <trkpt lat="-33.634600" lon="150.303129"><ele>795.1</ele><time>2026-05-09T09:30:24Z</time></trkpt>
    <trkpt lat="-33.634683" lon="150.303026"><ele>801.4</ele><time>2026-05-09T09:30:38Z</time></trkpt>
    <trkpt lat="-33.634747" lon="150.302936"><ele>807.9</ele><time>2026-05-09T09:30:52Z</time></trkpt>
    <trkpt lat="-33.634787" lon="150.302863"><ele>814.4</ele><time>2026-05-09T09:31:06Z</time></trkpt>
    <trkpt lat="-33.634802" lon="150.302807"><ele>820.9</ele><time>2026-05-09T09:31:20Z</time></trkpt>
    <trkpt lat="-33.634792" lon="150.302768"><ele>827.5</ele><time>2026-05-09T09:31:34Z</time></trkpt>
    <trkpt lat="-33.634762" lon="150.302744"><ele>834.2</ele><time>2026-05-09T09:31:48Z</time></trkpt>
    <trkpt lat="-33.634717" lon="150.302730"><ele>840.9</ele><time>2026-05-09T09:32:02Z</time></trkpt>
    <trkpt lat="-33.634666" lon="150.302721"><ele>847.6</ele><time>2026-05-09T09:32:16Z</time></trkpt>
    <trkpt lat="-33.634617" lon="150.302710"><ele>854.3</ele><time>2026-05-09T09:32:30Z</time></trkpt>
    <trkpt lat="-33.634579" lon="150.302691"><ele>861.0</ele><time>2026-05-09T09:32:44Z</time></trkpt>
    <trkpt lat="-33.634559" lon="150.302660"><ele>867.7</ele><time>2026-05-09T09:32:58Z</time></trkpt>
    <trkpt lat="-33.634561" lon="150.302613"><ele>874.4</ele><time>2026-05-09T09:33:12Z</time></trkpt>
    <trkpt lat="-33.634590" lon="150.302548"><ele>881.0</ele><time>2026-05-09T09:33:26Z</time></trkpt>
    <trkpt lat="-33.634643" lon="150.302466"><ele>887.5</ele><time>2026-05-09T09:33:40Z</time></trkpt>
    <trkpt lat="-33.634717" lon="150.302368"><ele>894.0</ele><time>2026-05-09T09:33:54Z</time></trkpt>
    <trkpt lat="-33.634807" lon="150.302260"><ele>900.5</ele><time>2026-05-09T09:34:08Z</time></trkpt>
    <trkpt lat="-33.634905" lon="150.302146"><ele>906.8</ele><time>2026-05-09T09:34:22Z</time></trkpt>
    <trkpt lat="-33.635002" lon="150.302033"><ele>913.1</ele><time>2026-05-09T09:34:36Z</time></trkpt>
    <trkpt lat="-33.635090" lon="150.301926"><ele>919.2</ele><time>2026-05-09T09:34:50Z</time></trkpt>
    <trkpt lat="-33.635161" lon="150.301831"><ele>925.2</ele><time>2026-05-09T09:35:04Z</time></trkpt>
    <trkpt lat="-33.635210" lon="150.301752"><ele>931.1</ele><time>2026-05-09T09:35:18Z</time></trkpt>
    <trkpt lat="-33.635233" lon="150.301690"><ele>936.9</ele><time>2026-05-09T09:35:32Z</time></trkpt>
    <trkpt lat="-33.635231" lon="150.301646"><ele>942.5</ele><time>2026-05-09T09:35:46Z</time></trkpt>
    <trkpt lat="-33.635207" lon="150.301618"><ele>948.0</ele><time>2026-05-09T09:36:00Z</time></trkpt>
    <trkpt lat="-33.635166" lon="150.301601"><ele>953.3</ele><time>2026-05-09T09:36:14Z</time></trkpt>
    <trkpt lat="-33.635116" lon="150.301591"><ele>958.4</ele><time>2026-05-09T09:36:28Z</time></trkpt>
    <trkpt lat="-33.635066" lon="150.301581"><ele>963.3</ele><time>2026-05-09T09:36:42Z</time></trkpt>
    <trkpt lat="-33.635023" lon="150.301565"><ele>968.1</ele><time>2026-05-09T09:36:56Z</time></trkpt>
    <trkpt lat="-33.634996" lon="150.301539"><ele>972.7</ele><time>2026-05-09T09:37:10Z</time></trkpt>
    <trkpt lat="-33.634991" lon="150.301497"><ele>977.1</ele><time>2026-05-09T09:37:24Z</time></trkpt>
    <trkpt lat="-33.635011" lon="150.301438"><ele>981.3</ele><time>2026-05-09T09:37:38Z</time></trkpt>
    <trkpt lat="-33.635056" lon="150.301362"><ele>985.2</ele><time>2026-05-09T09:37:52Z</time></trkpt>
    <trkpt lat="-33.635124" lon="150.301269"><ele>989.0</ele><time>2026-05-09T09:38:06Z</time></trkpt>
  </trkseg></trk>
</gpx>
