<?xml version="1.0" encoding="UTF-8"?>
<gpx version="1.1" creator="etrex-bridge sample" xmlns="http://www.topografix.com/GPX/1/1">
  <metadata>
    <name>Sample Harbour Loop</name>
    <time>2026-03-14T08:00:00Z</time>
  </metadata>
  <wpt lat="-33.847800" lon="151.215300"><name>Start Gate</name><sym>Flag, Blue</sym></wpt>
  <wpt lat="-33.862800" lon="151.222800"><name>Water Tap</name><sym>Flag, Blue</sym></wpt>
  <wpt lat="-33.852800" lon="151.206300"><name>Lookout</name><sym>Flag, Blue</sym></wpt>
  <rte><name>Sample Route</name>
    <rtept lat="-33.856800" lon="151.226138"><name>RP01</name></rtept>
    <rtept lat="-33.851373" lon="151.220512"><name>RP02</name></rtept>
    <rtept lat="-33.846731" lon="151.212532"><name>RP03</name></rtept>
    <rtept lat="-33.852581" lon="151.204749"><name>RP04</name></rtept>
    <rtept lat="-33.860390" lon="151.206322"><name>RP05</name></rtept>
    <rtept lat="-33.864279" lon="151.213244"><name>RP06</name></rtept>
    <rtept lat="-33.865446" lon="151.223603"><name>RP07</name></rtept>
  </rte>
  <trk><name>Sample Harbour Loop</name><trkseg>
    <trkpt lat="-33.856800" lon="151.226138"><ele>23.0</ele><time>2026-03-14T08:00:00Z</time></trkpt>
    <trkpt lat="-33.856662" lon="151.226437"><ele>23.5</ele><time>2026-03-14T08:00:12Z</time></trkpt>
    <trkpt lat="-33.856516" lon="151.226728"><ele>24.0</ele><time>2026-03-14T08:00:24Z</time></trkpt>
    <trkpt lat="-33.856363" lon="151.227008"><ele>24.5</ele><time>2026-03-14T08:00:36Z</time></trkpt>
    <trkpt lat="-33.856204" lon="151.227271"><ele>25.0</ele><time>2026-03-14T08:00:48Z</time></trkpt>
    <trkpt lat="-33.856040" lon="151.227513"><ele>25.4</ele><time>2026-03-14T08:01:00Z</time></trkpt>
    <trkpt lat="-33.855871" lon="151.227731"><ele>25.9</ele><time>2026-03-14T08:01:12Z</time></trkpt>
    <trkpt lat="-33.855698" lon="151.227922"><ele>26.4</ele><time>2026-03-14T08:01:24Z</time></trkpt>
    <trkpt lat="-33.855524" lon="151.228082"><ele>26.9</ele><time>2026-03-14T08:01:36Z</time></trkpt>
    <trkpt lat="-33.855348" lon="151.228211"><ele>27.3</ele><time>2026-03-14T08:01:48Z</time></trkpt>
    <trkpt lat="-33.855172" lon="151.228306"><ele>27.8</ele><time>2026-03-14T08:02:00Z</time></trkpt>
    <trkpt lat="-33.854998" lon="151.228367"><ele>28.2</ele><time>2026-03-14T08:02:12Z</time></trkpt>
    <trkpt lat="-33.854827" lon="151.228394"><ele>28.6</ele><time>2026-03-14T08:02:24Z</time></trkpt>
    <trkpt lat="-33.854659" lon="151.228388"><ele>29.1</ele><time>2026-03-14T08:02:36Z</time></trkpt>
    <trkpt lat="-33.854497" lon="151.228350"><ele>29.5</ele><time>2026-03-14T08:02:48Z</time></trkpt>
    <trkpt lat="-33.854339" lon="151.228282"><ele>29.9</ele><time>2026-03-14T08:03:00Z</time></trkpt>
    <trkpt lat="-33.854188" lon="151.228188"><ele>30.2</ele><time>2026-03-14T08:03:12Z</time></trkpt>
    <trkpt lat="-33.854044" lon="151.228069"><ele>30.6</ele><time>2026-03-14T08:03:24Z</time></trkpt>
    <trkpt lat="-33.853906" lon="151.227929"><ele>31.0</ele><time>2026-03-14T08:03:36Z</time></trkpt>
    <trkpt lat="-33.853774" lon="151.227772"><ele>31.3</ele><time>2026-03-14T08:03:48Z</time></trkpt>
    <trkpt lat="-33.853649" lon="151.227602"><ele>31.6</ele><time>2026-03-14T08:04:00Z</time></trkpt>
    <trkpt lat="-33.853529" lon="151.227421"><ele>31.9</ele><time>2026-03-14T08:04:12Z</time></trkpt>
    <trkpt lat="-33.853415" lon="151.227234"><ele>32.2</ele><time>2026-03-14T08:04:24Z</time></trkpt>
    <trkpt lat="-33.853305" lon="151.227044"><ele>32.4</ele><time>2026-03-14T08:04:36Z</time></trkpt>
    <trkpt lat="-33.853199" lon="151.226855"><ele>32.7</ele><time>2026-03-14T08:04:48Z</time></trkpt>
    <trkpt lat="-33.853095" lon="151.226668"><ele>32.9</ele><time>2026-03-14T08:05:00Z</time></trkpt>
    <trkpt lat="-33.852992" lon="151.226487"><ele>33.1</ele><time>2026-03-14T08:05:12Z</time></trkpt>
    <trkpt lat="-33.852891" lon="151.226314"><ele>33.3</ele><time>2026-03-14T08:05:24Z</time></trkpt>
    <trkpt lat="-33.852788" lon="151.226150"><ele>33.5</ele><time>2026-03-14T08:05:36Z</time></trkpt>
    <trkpt lat="-33.852685" lon="151.225995"><ele>33.6</ele><time>2026-03-14T08:05:48Z</time></trkpt>
    <trkpt lat="-33.852581" lon="151.225851"><ele>33.7</ele><time>2026-03-14T08:06:00Z</time></trkpt>
    <trkpt lat="-33.852474" lon="151.225717"><ele>33.8</ele><time>2026-03-14T08:06:12Z</time></trkpt>
    <trkpt lat="-33.852365" lon="151.225592"><ele>33.9</ele><time>2026-03-14T08:06:24Z</time></trkpt>
    <trkpt lat="-33.852253" lon="151.225475"><ele>34.0</ele><time>2026-03-14T08:06:36Z</time></trkpt>
    <trkpt lat="-33.852140" lon="151.225365"><ele>34.0</ele><time>2026-03-14T08:06:48Z</time></trkpt>
    <trkpt lat="-33.852025" lon="151.225259"><ele>34.0</ele><time>2026-03-14T08:07:00Z</time></trkpt>
    <trkpt lat="-33.851909" lon="151.225157"><ele>34.0</ele><time>2026-03-14T08:07:12Z</time></trkpt>
    <trkpt lat="-33.851794" lon="151.225055"><ele>34.0</ele><time>2026-03-14T08:07:24Z</time></trkpt>
    <trkpt lat="-33.851680" lon="151.224950"><ele>33.9</ele><time>2026-03-14T08:07:36Z</time></trkpt>
    <trkpt lat="-33.851570" lon="151.224842"><ele>33.8</ele><time>2026-03-14T08:07:48Z</time></trkpt>
    <trkpt lat="-33.851463" lon="151.224727"><ele>33.7</ele><time>2026-03-14T08:08:00Z</time></trkpt>
    <trkpt lat="-33.851362" lon="151.224603"><ele>33.6</ele><time>2026-03-14T08:08:12Z</time></trkpt>
    <trkpt lat="-33.851268" lon="151.224469"><ele>33.5</ele><time>2026-03-14T08:08:24Z</time></trkpt>
    <trkpt lat="-33.851183" lon="151.224322"><ele>33.3</ele><time>2026-03-14T08:08:36Z</time></trkpt>
    <trkpt lat="-33.851108" lon="151.224163"><ele>33.1</ele><time>2026-03-14T08:08:48Z</time></trkpt>
    <trkpt lat="-33.851045" lon="151.223990"><ele>32.9</ele><time>2026-03-14T08:09:00Z</time></trkpt>
    <trkpt lat="-33.850994" lon="151.223803"><ele>32.7</ele><time>2026-03-14T08:09:12Z</time></trkpt>
    <trkpt lat="-33.850956" lon="151.223602"><ele>32.4</ele><time>2026-03-14T08:09:24Z</time></trkpt>
    <trkpt lat="-33.850932" lon="151.223387"><ele>32.2</ele><time>2026-03-14T08:09:36Z</time></trkpt>
    <trkpt lat="-33.850922" lon="151.223161"><ele>31.9</ele><time>2026-03-14T08:09:48Z</time></trkpt>
    <trkpt lat="-33.850925" lon="151.222925"><ele>31.6</ele><time>2026-03-14T08:10:00Z</time></trkpt>
    <trkpt lat="-33.850941" lon="151.222680"><ele>31.3</ele><time>2026-03-14T08:10:12Z</time></trkpt>
    <trkpt lat="-33.850968" lon="151.222428"><ele>31.0</ele><time>2026-03-14T08:10:24Z</time></trkpt>
    <trkpt lat="-33.851006" lon="151.222173"><ele>30.6</ele><time>2026-03-14T08:10:36Z</time></trkpt>
    <trkpt lat="-33.851053" lon="151.221917"><ele>30.2</ele><time>2026-03-14T08:10:48Z</time></trkpt>
    <trkpt lat="-33.851105" lon="151.221663"><ele>29.9</ele><time>2026-03-14T08:11:00Z</time></trkpt>
    <trkpt lat="-33.851162" lon="151.221413"><ele>29.5</ele><time>2026-03-14T08:11:12Z</time></trkpt>
    <trkpt lat="-33.851220" lon="151.221171"><ele>29.1</ele><time>2026-03-14T08:11:24Z</time></trkpt>
    <trkpt lat="-33.851276" lon="151.220938"><ele>28.6</ele><time>2026-03-14T08:11:36Z</time></trkpt>
    <trkpt lat="-33.851328" lon="151.220718"><ele>28.2</ele><time>2026-03-14T08:11:48Z</time></trkpt>
    <trkpt lat="-33.851373" lon="151.220512"><ele>27.8</ele><time>2026-03-14T08:12:00Z</time></trkpt>
    <trkpt lat="-33.851407" lon="151.220322"><ele>27.3</ele><time>2026-03-14T08:12:12Z</time></trkpt>
    <trkpt lat="-33.851428" lon="151.220149"><ele>26.9</ele><time>2026-03-14T08:12:24Z</time></trkpt>
    <trkpt lat="-33.851433" lon="151.219995"><ele>26.4</ele><time>2026-03-14T08:12:36Z</time></trkpt>
    <trkpt lat="-33.851420" lon="151.219860"><ele>25.9</ele><time>2026-03-14T08:12:48Z</time></trkpt>
    <trkpt lat="-33.851387" lon="151.219744"><ele>25.4</ele><time>2026-03-14T08:13:00Z</time></trkpt>
    <trkpt lat="-33.851332" lon="151.219646"><ele>25.0</ele><time>2026-03-14T08:13:12Z</time></trkpt>
    <trkpt lat="-33.851255" lon="151.219566"><ele>24.5</ele><time>2026-03-14T08:13:24Z</time></trkpt>
    <trkpt lat="-33.851154" lon="151.219502"><ele>24.0</ele><time>2026-03-14T08:13:36Z</time></trkpt>
    <trkpt lat="-33.851029" lon="151.219452"><ele>23.5</ele><time>2026-03-14T08:13:48Z</time></trkpt>
    <trkpt lat="-33.850881" lon="151.219415"><ele>23.0</ele><time>2026-03-14T08:14:00Z</time></trkpt>
    <trkpt lat="-33.850711" lon="151.219389"><ele>22.5</ele><time>2026-03-14T08:14:12Z</time></trkpt>
    <trkpt lat="-33.850519" lon="151.219370"><ele>22.0</ele><time>2026-03-14T08:14:24Z</time></trkpt>
    <trkpt lat="-33.850310" lon="151.219356"><ele>21.5</ele><time>2026-03-14T08:14:36Z</time></trkpt>
    <trkpt lat="-33.850083" lon="151.219345"><ele>21.0</ele><time>2026-03-14T08:14:48Z</time></trkpt>
    <trkpt lat="-33.849843" lon="151.219335"><ele>20.6</ele><time>2026-03-14T08:15:00Z</time></trkpt>
    <trkpt lat="-33.849592" lon="151.219321"><ele>20.1</ele><time>2026-03-14T08:15:12Z</time></trkpt>
    <trkpt lat="-33.849333" lon="151.219303"><ele>19.6</ele><time>2026-03-14T08:15:24Z</time></trkpt>
    <trkpt lat="-33.849071" lon="151.219278"><ele>19.1</ele><time>2026-03-14T08:15:36Z</time></trkpt>
    <trkpt lat="-33.848808" lon="151.219244"><ele>18.7</ele><time>2026-03-14T08:15:48Z</time></trkpt>
    <trkpt lat="-33.848549" lon="151.219200"><ele>18.2</ele><time>2026-03-14T08:16:00Z</time></trkpt>
    <trkpt lat="-33.848296" lon="151.219143"><ele>17.8</ele><time>2026-03-14T08:16:12Z</time></trkpt>
    <trkpt lat="-33.848053" lon="151.219074"><ele>17.4</ele><time>2026-03-14T08:16:24Z</time></trkpt>
    <trkpt lat="-33.847822" lon="151.218992"><ele>16.9</ele><time>2026-03-14T08:16:36Z</time></trkpt>
    <trkpt lat="-33.847607" lon="151.218897"><ele>16.5</ele><time>2026-03-14T08:16:48Z</time></trkpt>
    <trkpt lat="-33.847410" lon="151.218788"><ele>16.1</ele><time>2026-03-14T08:17:00Z</time></trkpt>
    <trkpt lat="-33.847232" lon="151.218666"><ele>15.8</ele><time>2026-03-14T08:17:12Z</time></trkpt>
    <trkpt lat="-33.847074" lon="151.218532"><ele>15.4</ele><time>2026-03-14T08:17:24Z</time></trkpt>
    <trkpt lat="-33.846938" lon="151.218387"><ele>15.0</ele><time>2026-03-14T08:17:36Z</time></trkpt>
    <trkpt lat="-33.846824" lon="151.218232"><ele>14.7</ele><time>2026-03-14T08:17:48Z</time></trkpt>
    <trkpt lat="-33.846731" lon="151.218068"><ele>14.4</ele><time>2026-03-14T08:18:00Z</time></trkpt>
    <trkpt lat="-33.846658" lon="151.217896"><ele>14.1</ele><time>2026-03-14T08:18:12Z</time></trkpt>
    <trkpt lat="-33.846605" lon="151.217718"><ele>13.8</ele><time>2026-03-14T08:18:24Z</time></trkpt>
    <trkpt lat="-33.846570" lon="151.217536"><ele>13.6</ele><time>2026-03-14T08:18:36Z</time></trkpt>
    <trkpt lat="-33.846550" lon="151.217350"><ele>13.3</ele><time>2026-03-14T08:18:48Z</time></trkpt>
    <trkpt lat="-33.846544" lon="151.217161"><ele>13.1</ele><time>2026-03-14T08:19:00Z</time></trkpt>
    <trkpt lat="-33.846549" lon="151.216972"><ele>12.9</ele><time>2026-03-14T08:19:12Z</time></trkpt>
    <trkpt lat="-33.846563" lon="151.216782"><ele>12.7</ele><time>2026-03-14T08:19:24Z</time></trkpt>
    <trkpt lat="-33.846582" lon="151.216593"><ele>12.5</ele><time>2026-03-14T08:19:36Z</time></trkpt>
    <trkpt lat="-33.846605" lon="151.216405"><ele>12.4</ele><time>2026-03-14T08:19:48Z</time></trkpt>
    <trkpt lat="-33.846629" lon="151.216218"><ele>12.3</ele><time>2026-03-14T08:20:00Z</time></trkpt>
    <trkpt lat="-33.846652" lon="151.216032"><ele>12.2</ele><time>2026-03-14T08:20:12Z</time></trkpt>
    <trkpt lat="-33.846672" lon="151.215848"><ele>12.1</ele><time>2026-03-14T08:20:24Z</time></trkpt>
    <trkpt lat="-33.846687" lon="151.215664"><ele>12.0</ele><time>2026-03-14T08:20:36Z</time></trkpt>
    <trkpt lat="-33.846697" lon="151.215482"><ele>12.0</ele><time>2026-03-14T08:20:48Z</time></trkpt>
    <trkpt lat="-33.846700" lon="151.215300"><ele>12.0</ele><time>2026-03-14T08:21:00Z</time></trkpt>
    <trkpt lat="-33.846697" lon="151.215118"><ele>12.0</ele><time>2026-03-14T08:21:12Z</time></trkpt>
    <trkpt lat="-33.846687" lon="151.214936"><ele>12.0</ele><time>2026-03-14T08:21:24Z</time></trkpt>
    <trkpt lat="-33.846672" lon="151.214752"><ele>12.1</ele><time>2026-03-14T08:21:36Z</time></trkpt>
    <trkpt lat="-33.846652" lon="151.214568"><ele>12.2</ele><time>2026-03-14T08:21:48Z</time></trkpt>
    <trkpt lat="-33.846629" lon="151.214382"><ele>12.3</ele><time>2026-03-14T08:22:00Z</time></trkpt>
    <trkpt lat="-33.846605" lon="151.214195"><ele>12.4</ele><time>2026-03-14T08:22:12Z</time></trkpt>
    <trkpt lat="-33.846582" lon="151.214007"><ele>12.5</ele><time>2026-03-14T08:22:24Z</time></trkpt>
    <trkpt lat="-33.846563" lon="151.213818"><ele>12.7</ele><time>2026-03-14T08:22:36Z</time></trkpt>
    <trkpt lat="-33.846549" lon="151.213628"><ele>12.9</ele><time>2026-03-14T08:22:48Z</time></trkpt>
    <trkpt lat="-33.846544" lon="151.213439"><ele>13.1</ele><time>2026-03-14T08:23:00Z</time></trkpt>
    <trkpt lat="-33.846550" lon="151.213250"><ele>13.3</ele><time>2026-03-14T08:23:12Z</time></trkpt>
    <trkpt lat="-33.846570" lon="151.213064"><ele>13.6</ele><time>2026-03-14T08:23:24Z</time></trkpt>
    <trkpt lat="-33.846605" lon="151.212882"><ele>13.8</ele><time>2026-03-14T08:23:36Z</time></trkpt>
    <trkpt lat="-33.846658" lon="151.212704"><ele>14.1</ele><time>2026-03-14T08:23:48Z</time></trkpt>
    <trkpt lat="-33.846731" lon="151.212532"><ele>14.4</ele><time>2026-03-14T08:24:00Z</time></trkpt>
    <trkpt lat="-33.846824" lon="151.212368"><ele>14.7</ele><time>2026-03-14T08:24:12Z</time></trkpt>
    <trkpt lat="-33.846938" lon="151.212213"><ele>15.0</ele><time>2026-03-14T08:24:24Z</time></trkpt>
    <trkpt lat="-33.847074" lon="151.212068"><ele>15.4</ele><time>2026-03-14T08:24:36Z</time></trkpt>
    <trkpt lat="-33.847232" lon="151.211934"><ele>15.8</ele><time>2026-03-14T08:24:48Z</time></trkpt>
    <trkpt lat="-33.847410" lon="151.211812"><ele>16.1</ele><time>2026-03-14T08:25:00Z</time></trkpt>
    <trkpt lat="-33.847607" lon="151.211703"><ele>16.5</ele><time>2026-03-14T08:25:12Z</time></trkpt>
    <trkpt lat="-33.847822" lon="151.211608"><ele>16.9</ele><time>2026-03-14T08:25:24Z</time></trkpt>
    <trkpt lat="-33.848053" lon="151.211526"><ele>17.4</ele><time>2026-03-14T08:25:36Z</time></trkpt>
    <trkpt lat="-33.848296" lon="151.211457"><ele>17.8</ele><time>2026-03-14T08:25:48Z</time></trkpt>
    <trkpt lat="-33.848549" lon="151.211400"><ele>18.2</ele><time>2026-03-14T08:26:00Z</time></trkpt>
    <trkpt lat="-33.848808" lon="151.211356"><ele>18.7</ele><time>2026-03-14T08:26:12Z</time></trkpt>
    <trkpt lat="-33.849071" lon="151.211322"><ele>19.1</ele><time>2026-03-14T08:26:24Z</time></trkpt>
    <trkpt lat="-33.849333" lon="151.211297"><ele>19.6</ele><time>2026-03-14T08:26:36Z</time></trkpt>
    <trkpt lat="-33.849592" lon="151.211279"><ele>20.1</ele><time>2026-03-14T08:26:48Z</time></trkpt>
    <trkpt lat="-33.849843" lon="151.211265"><ele>20.6</ele><time>2026-03-14T08:27:00Z</time></trkpt>
    <trkpt lat="-33.850083" lon="151.211255"><ele>21.0</ele><time>2026-03-14T08:27:12Z</time></trkpt>
    <trkpt lat="-33.850310" lon="151.211244"><ele>21.5</ele><time>2026-03-14T08:27:24Z</time></trkpt>
    <trkpt lat="-33.850519" lon="151.211230"><ele>22.0</ele><time>2026-03-14T08:27:36Z</time></trkpt>
    <trkpt lat="-33.850711" lon="151.211211"><ele>22.5</ele><time>2026-03-14T08:27:48Z</time></trkpt>
    <trkpt lat="-33.850881" lon="151.211185"><ele>23.0</ele><time>2026-03-14T08:28:00Z</time></trkpt>
    <trkpt lat="-33.851029" lon="151.211148"><ele>23.5</ele><time>2026-03-14T08:28:12Z</time></trkpt>
    <trkpt lat="-33.851154" lon="151.211098"><ele>24.0</ele><time>2026-03-14T08:28:24Z</time></trkpt>
    <trkpt lat="-33.851255" lon="151.211034"><ele>24.5</ele><time>2026-03-14T08:28:36Z</time></trkpt>
    <trkpt lat="-33.851332" lon="151.210954"><ele>25.0</ele><time>2026-03-14T08:28:48Z</time></trkpt>
    <trkpt lat="-33.851387" lon="151.210856"><ele>25.4</ele><time>2026-03-14T08:29:00Z</time></trkpt>
    <trkpt lat="-33.851420" lon="151.210740"><ele>25.9</ele><time>2026-03-14T08:29:12Z</time></trkpt>
    <trkpt lat="-33.851433" lon="151.210605"><ele>26.4</ele><time>2026-03-14T08:29:24Z</time></trkpt>
    <trkpt lat="-33.851428" lon="151.210451"><ele>26.9</ele><time>2026-03-14T08:29:36Z</time></trkpt>
    <trkpt lat="-33.851407" lon="151.210278"><ele>27.3</ele><time>2026-03-14T08:29:48Z</time></trkpt>
    <trkpt lat="-33.851373" lon="151.210088"><ele>27.8</ele><time>2026-03-14T08:30:00Z</time></trkpt>
    <trkpt lat="-33.851328" lon="151.209882"><ele>28.2</ele><time>2026-03-14T08:30:12Z</time></trkpt>
    <trkpt lat="-33.851276" lon="151.209662"><ele>28.6</ele><time>2026-03-14T08:30:24Z</time></trkpt>
    <trkpt lat="-33.851220" lon="151.209429"><ele>29.1</ele><time>2026-03-14T08:30:36Z</time></trkpt>
    <trkpt lat="-33.851162" lon="151.209187"><ele>29.5</ele><time>2026-03-14T08:30:48Z</time></trkpt>
    <trkpt lat="-33.851105" lon="151.208937"><ele>29.9</ele><time>2026-03-14T08:31:00Z</time></trkpt>
    <trkpt lat="-33.851053" lon="151.208683"><ele>30.2</ele><time>2026-03-14T08:31:12Z</time></trkpt>
    <trkpt lat="-33.851006" lon="151.208427"><ele>30.6</ele><time>2026-03-14T08:31:24Z</time></trkpt>
    <trkpt lat="-33.850968" lon="151.208172"><ele>31.0</ele><time>2026-03-14T08:31:36Z</time></trkpt>
    <trkpt lat="-33.850941" lon="151.207920"><ele>31.3</ele><time>2026-03-14T08:31:48Z</time></trkpt>
    <trkpt lat="-33.850925" lon="151.207675"><ele>31.6</ele><time>2026-03-14T08:32:00Z</time></trkpt>
    <trkpt lat="-33.850922" lon="151.207439"><ele>31.9</ele><time>2026-03-14T08:32:12Z</time></trkpt>
    <trkpt lat="-33.850932" lon="151.207213"><ele>32.2</ele><time>2026-03-14T08:32:24Z</time></trkpt>
    <trkpt lat="-33.850956" lon="151.206998"><ele>32.4</ele><time>2026-03-14T08:32:36Z</time></trkpt>
    <trkpt lat="-33.850994" lon="151.206797"><ele>32.7</ele><time>2026-03-14T08:32:48Z</time></trkpt>
    <trkpt lat="-33.851045" lon="151.206610"><ele>32.9</ele><time>2026-03-14T08:33:00Z</time></trkpt>
    <trkpt lat="-33.851108" lon="151.206437"><ele>33.1</ele><time>2026-03-14T08:33:12Z</time></trkpt>
    <trkpt lat="-33.851183" lon="151.206278"><ele>33.3</ele><time>2026-03-14T08:33:24Z</time></trkpt>
    <trkpt lat="-33.851268" lon="151.206131"><ele>33.5</ele><time>2026-03-14T08:33:36Z</time></trkpt>
    <trkpt lat="-33.851362" lon="151.205997"><ele>33.6</ele><time>2026-03-14T08:33:48Z</time></trkpt>
    <trkpt lat="-33.851463" lon="151.205873"><ele>33.7</ele><time>2026-03-14T08:34:00Z</time></trkpt>
    <trkpt lat="-33.851570" lon="151.205758"><ele>33.8</ele><time>2026-03-14T08:34:12Z</time></trkpt>
    <trkpt lat="-33.851680" lon="151.205650"><ele>33.9</ele><time>2026-03-14T08:34:24Z</time></trkpt>
    <trkpt lat="-33.851794" lon="151.205545"><ele>34.0</ele><time>2026-03-14T08:34:36Z</time></trkpt>
    <trkpt lat="-33.851909" lon="151.205443"><ele>34.0</ele><time>2026-03-14T08:34:48Z</time></trkpt>
    <trkpt lat="-33.852025" lon="151.205341"><ele>34.0</ele><time>2026-03-14T08:35:00Z</time></trkpt>
    <trkpt lat="-33.852140" lon="151.205235"><ele>34.0</ele><time>2026-03-14T08:35:12Z</time></trkpt>
    <trkpt lat="-33.852253" lon="151.205125"><ele>34.0</ele><time>2026-03-14T08:35:24Z</time></trkpt>
    <trkpt lat="-33.852365" lon="151.205008"><ele>33.9</ele><time>2026-03-14T08:35:36Z</time></trkpt>
    <trkpt lat="-33.852474" lon="151.204883"><ele>33.8</ele><time>2026-03-14T08:35:48Z</time></trkpt>
    <trkpt lat="-33.852581" lon="151.204749"><ele>33.7</ele><time>2026-03-14T08:36:00Z</time></trkpt>
    <trkpt lat="-33.852685" lon="151.204605"><ele>33.6</ele><time>2026-03-14T08:36:12Z</time></trkpt>
    <trkpt lat="-33.852788" lon="151.204450"><ele>33.5</ele><time>2026-03-14T08:36:24Z</time></trkpt>
    <trkpt lat="-33.852891" lon="151.204286"><ele>33.3</ele><time>2026-03-14T08:36:36Z</time></trkpt>
    <trkpt lat="-33.852992" lon="151.204113"><ele>33.1</ele><time>2026-03-14T08:36:48Z</time></trkpt>
    <trkpt lat="-33.853095" lon="151.203932"><ele>32.9</ele><time>2026-03-14T08:37:00Z</time></trkpt>
    <trkpt lat="-33.853199" lon="151.203745"><ele>32.7</ele><time>2026-03-14T08:37:12Z</time></trkpt>
    <trkpt lat="-33.853305" lon="151.203556"><ele>32.4</ele><time>2026-03-14T08:37:24Z</time></trkpt>
    <trkpt lat="-33.853415" lon="151.203366"><ele>32.2</ele><time>2026-03-14T08:37:36Z</time></trkpt>
    <trkpt lat="-33.853529" lon="151.203179"><ele>31.9</ele><time>2026-03-14T08:37:48Z</time></trkpt>
    <trkpt lat="-33.853649" lon="151.202998"><ele>31.6</ele><time>2026-03-14T08:38:00Z</time></trkpt>
    <trkpt lat="-33.853774" lon="151.202828"><ele>31.3</ele><time>2026-03-14T08:38:12Z</time></trkpt>
    <trkpt lat="-33.853906" lon="151.202671"><ele>31.0</ele><time>2026-03-14T08:38:24Z</time></trkpt>
    <trkpt lat="-33.854044" lon="151.202531"><ele>30.6</ele><time>2026-03-14T08:38:36Z</time></trkpt>
    <trkpt lat="-33.854188" lon="151.202412"><ele>30.2</ele><time>2026-03-14T08:38:48Z</time></trkpt>
    <trkpt lat="-33.854339" lon="151.202318"><ele>29.9</ele><time>2026-03-14T08:39:00Z</time></trkpt>
    <trkpt lat="-33.854497" lon="151.202250"><ele>29.5</ele><time>2026-03-14T08:39:12Z</time></trkpt>
    <trkpt lat="-33.854659" lon="151.202212"><ele>29.1</ele><time>2026-03-14T08:39:24Z</time></trkpt>
    <trkpt lat="-33.854827" lon="151.202206"><ele>28.6</ele><time>2026-03-14T08:39:36Z</time></trkpt>
    <trkpt lat="-33.854998" lon="151.202233"><ele>28.2</ele><time>2026-03-14T08:39:48Z</time></trkpt>
    <trkpt lat="-33.855172" lon="151.202294"><ele>27.8</ele><time>2026-03-14T08:40:00Z</time></trkpt>
    <trkpt lat="-33.855348" lon="151.202389"><ele>27.3</ele><time>2026-03-14T08:40:12Z</time></trkpt>
    <trkpt lat="-33.855524" lon="151.202518"><ele>26.9</ele><time>2026-03-14T08:40:24Z</time></trkpt>
    <trkpt lat="-33.855698" lon="151.202678"><ele>26.4</ele><time>2026-03-14T08:40:36Z</time></trkpt>
    <trkpt lat="-33.855871" lon="151.202869"><ele>25.9</ele><time>2026-03-14T08:40:48Z</time></trkpt>
    <trkpt lat="-33.856040" lon="151.203087"><ele>25.4</ele><time>2026-03-14T08:41:00Z</time></trkpt>
    <trkpt lat="-33.856204" lon="151.203329"><ele>25.0</ele><time>2026-03-14T08:41:12Z</time></trkpt>
    <trkpt lat="-33.856363" lon="151.203592"><ele>24.5</ele><time>2026-03-14T08:41:24Z</time></trkpt>
    <trkpt lat="-33.856516" lon="151.203872"><ele>24.0</ele><time>2026-03-14T08:41:36Z</time></trkpt>
    <trkpt lat="-33.856662" lon="151.204163"><ele>23.5</ele><time>2026-03-14T08:41:48Z</time></trkpt>
    <trkpt lat="-33.856800" lon="151.204462"><ele>23.0</ele><time>2026-03-14T08:42:00Z</time></trkpt>
    <trkpt lat="-33.856931" lon="151.204764"><ele>22.5</ele><time>2026-03-14T08:42:12Z</time></trkpt>
    <trkpt lat="-33.857054" lon="151.205062"><ele>22.0</ele><time>2026-03-14T08:42:24Z</time></trkpt>
    <trkpt lat="-33.857171" lon="151.205354"><ele>21.5</ele><time>2026-03-14T08:42:36Z</time></trkpt>
    <trkpt lat="-33.857281" lon="151.205634"><ele>21.0</ele><time>2026-03-14T08:42:48Z</time></trkpt>
    <trkpt lat="-33.857385" lon="151.205898"><ele>20.6</ele><time>2026-03-14T08:43:00Z</time></trkpt>
    <trkpt lat="-33.857484" lon="151.206143"><ele>20.1</ele><time>2026-03-14T08:43:12Z</time></trkpt>
    <trkpt lat="-33.857580" lon="151.206365"><ele>19.6</ele><time>2026-03-14T08:43:24Z</time></trkpt>
    <trkpt lat="-33.857673" lon="151.206562"><ele>19.1</ele><time>2026-03-14T08:43:36Z</time></trkpt>
    <trkpt lat="-33.857764" lon="151.206732"><ele>18.7</ele><time>2026-03-14T08:43:48Z</time></trkpt>
    <trkpt lat="-33.857855" lon="151.206872"><ele>18.2</ele><time>2026-03-14T08:44:00Z</time></trkpt>
    <trkpt lat="-33.857947" lon="151.206984"><ele>17.8</ele><time>2026-03-14T08:44:12Z</time></trkpt>
    <trkpt lat="-33.858041" lon="151.207067"><ele>17.4</ele><time>2026-03-14T08:44:24Z</time></trkpt>
    <trkpt lat="-33.858138" lon="151.207121"><ele>16.9</ele><time>2026-03-14T08:44:36Z</time></trkpt>
    <trkpt lat="-33.858239" lon="151.207148"><ele>16.5</ele><time>2026-03-14T08:44:48Z</time></trkpt>
    <trkpt lat="-33.858345" lon="151.207150"><ele>16.1</ele><time>2026-03-14T08:45:00Z</time></trkpt>
    <trkpt lat="-33.858456" lon="151.207130"><ele>15.8</ele><time>2026-03-14T08:45:12Z</time></trkpt>
    <trkpt lat="-33.858572" lon="151.207091"><ele>15.4</ele><time>2026-03-14T08:45:24Z</time></trkpt>
    <trkpt lat="-33.858694" lon="151.207035"><ele>15.0</ele><time>2026-03-14T08:45:36Z</time></trkpt>
    <trkpt lat="-33.858822" lon="151.206967"><ele>14.7</ele><time>2026-03-14T08:45:48Z</time></trkpt>
    <trkpt lat="-33.858954" lon="151.206889"><ele>14.4</ele><time>2026-03-14T08:46:00Z</time></trkpt>
    <trkpt lat="-33.859092" lon="151.206806"><ele>14.1</ele><time>2026-03-14T08:46:12Z</time></trkpt>
    <trkpt lat="-33.859233" lon="151.206722"><ele>13.8</ele><time>2026-03-14T08:46:24Z</time></trkpt>
    <trkpt lat="-33.859377" lon="151.206639"><ele>13.6</ele><time>2026-03-14T08:46:36Z</time></trkpt>
    <trkpt lat="-33.859524" lon="151.206561"><ele>13.3</ele><time>2026-03-14T08:46:48Z</time></trkpt>
    <trkpt lat="-33.859671" lon="151.206491"><ele>13.1</ele><time>2026-03-14T08:47:00Z</time></trkpt>
    <trkpt lat="-33.859818" lon="151.206431"><ele>12.9</ele><time>2026-03-14T08:47:12Z</time></trkpt>
    <trkpt lat="-33.859965" lon="151.206383"><ele>12.7</ele><time>2026-03-14T08:47:24Z</time></trkpt>
    <trkpt lat="-33.860110" lon="151.206348"><ele>12.5</ele><time>2026-03-14T08:47:36Z</time></trkpt>
    <trkpt lat="-33.860252" lon="151.206328"><ele>12.4</ele><time>2026-03-14T08:47:48Z</time></trkpt>
    <trkpt lat="-33.860390" lon="151.206322"><ele>12.3</ele><time>2026-03-14T08:48:00Z</time></trkpt>
    <trkpt lat="-33.860525" lon="151.206330"><ele>12.2</ele><time>2026-03-14T08:48:12Z</time></trkpt>
    <trkpt lat="-33.860656" lon="151.206353"><ele>12.1</ele><time>2026-03-14T08:48:24Z</time></trkpt>
    <trkpt lat="-33.860783" lon="151.206387"><ele>12.0</ele><time>2026-03-14T08:48:36Z</time></trkpt>
    <trkpt lat="-33.860906" lon="151.206433"><ele>12.0</ele><time>2026-03-14T08:48:48Z</time></trkpt>
    <trkpt lat="-33.861025" lon="151.206488"><ele>12.0</ele><time>2026-03-14T08:49:00Z</time></trkpt>
    <trkpt lat="-33.861142" lon="151.206549"><ele>12.0</ele><time>2026-03-14T08:49:12Z</time></trkpt>
    <trkpt lat="-33.861257" lon="151.206616"><ele>12.0</ele><time>2026-03-14T08:49:24Z</time></trkpt>
    <trkpt lat="-33.861371" lon="151.206684"><ele>12.1</ele><time>2026-03-14T08:49:36Z</time></trkpt>
    <trkpt lat="-33.861486" lon="151.206752"><ele>12.2</ele><time>2026-03-14T08:49:48Z</time></trkpt>
    <trkpt lat="-33.861603" lon="151.206818"><ele>12.3</ele><time>2026-03-14T08:50:00Z</time></trkpt>
    <trkpt lat="-33.861723" lon="151.206879"><ele>12.4</ele><time>2026-03-14T08:50:12Z</time></trkpt>
    <trkpt lat="-33.861848" lon="151.206933"><ele>12.5</ele><time>2026-03-14T08:50:24Z</time></trkpt>
    <trkpt lat="-33.861980" lon="151.206979"><ele>12.7</ele><time>2026-03-14T08:50:36Z</time></trkpt>
    <trkpt lat="-33.862119" lon="151.207016"><ele>12.9</ele><time>2026-03-14T08:50:48Z</time></trkpt>
    <trkpt lat="-33.862268" lon="151.207043"><ele>13.1</ele><time>2026-03-14T08:51:00Z</time></trkpt>
    <trkpt lat="-33.862426" lon="151.207060"><ele>13.3</ele><time>2026-03-14T08:51:12Z</time></trkpt>
    <trkpt lat="-33.862595" lon="151.207067"><ele>13.6</ele><time>2026-03-14T08:51:24Z</time></trkpt>
    <trkpt lat="-33.862775" lon="151.207064"><ele>13.8</ele><time>2026-03-14T08:51:36Z</time></trkpt>
    <trkpt lat="-33.862966" lon="151.207053"><ele>14.1</ele><time>2026-03-14T08:51:48Z</time></trkpt>
    <trkpt lat="-33.863168" lon="151.207036"><ele>14.4</ele><time>2026-03-14T08:52:00Z</time></trkpt>
    <trkpt lat="-33.863380" lon="151.207013"><ele>14.7</ele><time>2026-03-14T08:52:12Z</time></trkpt>
    <trkpt lat="-33.863601" lon="151.206987"><ele>15.0</ele><time>2026-03-14T08:52:24Z</time></trkpt>
    <trkpt lat="-33.863829" lon="151.206962"><ele>15.4</ele><time>2026-03-14T08:52:36Z</time></trkpt>
    <trkpt lat="-33.864063" lon="151.206938"><ele>15.8</ele><time>2026-03-14T08:52:48Z</time></trkpt>
    <trkpt lat="-33.864300" lon="151.206920"><ele>16.1</ele><time>2026-03-14T08:53:00Z</time></trkpt>
    <trkpt lat="-33.864539" lon="151.206909"><ele>16.5</ele><time>2026-03-14T08:53:12Z</time></trkpt>
    <trkpt lat="-33.864775" lon="151.206909"><ele>16.9</ele><time>2026-03-14T08:53:24Z</time></trkpt>
    <trkpt lat="-33.865007" lon="151.206923"><ele>17.4</ele><time>2026-03-14T08:53:36Z</time></trkpt>
    <trkpt lat="-33.865232" lon="151.206951"><ele>17.8</ele><time>2026-03-14T08:53:48Z</time></trkpt>
    <trkpt lat="-33.865446" lon="151.206997"><ele>18.2</ele><time>2026-03-14T08:54:00Z</time></trkpt>
    <trkpt lat="-33.865646" lon="151.207062"><ele>18.7</ele><time>2026-03-14T08:54:12Z</time></trkpt>
    <trkpt lat="-33.865830" lon="151.207148"><ele>19.1</ele><time>2026-03-14T08:54:24Z</time></trkpt>
    <trkpt lat="-33.865996" lon="151.207255"><ele>19.6</ele><time>2026-03-14T08:54:36Z</time></trkpt>
    <trkpt lat="-33.866139" lon="151.207383"><ele>20.1</ele><time>2026-03-14T08:54:48Z</time></trkpt>
    <trkpt lat="-33.866259" lon="151.207534"><ele>20.6</ele><time>2026-03-14T08:55:00Z</time></trkpt>
    <trkpt lat="-33.866355" lon="151.207705"><ele>21.0</ele><time>2026-03-14T08:55:12Z</time></trkpt>
    <trkpt lat="-33.866424" lon="151.207897"><ele>21.5</ele><time>2026-03-14T08:55:24Z</time></trkpt>
    <trkpt lat="-33.866466" lon="151.208107"><ele>22.0</ele><time>2026-03-14T08:55:36Z</time></trkpt>
    <trkpt lat="-33.866481" lon="151.208335"><ele>22.5</ele><time>2026-03-14T08:55:48Z</time></trkpt>
    <trkpt lat="-33.866469" lon="151.208578"><ele>23.0</ele><time>2026-03-14T08:56:00Z</time></trkpt>
    <trkpt lat="-33.866432" lon="151.208833"><ele>23.5</ele><time>2026-03-14T08:56:12Z</time></trkpt>
    <trkpt lat="-33.866370" lon="151.209098"><ele>24.0</ele><time>2026-03-14T08:56:24Z</time></trkpt>
    <trkpt lat="-33.866286" lon="151.209372"><ele>24.5</ele><time>2026-03-14T08:56:36Z</time></trkpt>
    <trkpt lat="-33.866182" lon="151.209650"><ele>25.0</ele><time>2026-03-14T08:56:48Z</time></trkpt>
    <trkpt lat="-33.866060" lon="151.209930"><ele>25.4</ele><time>2026-03-14T08:57:00Z</time></trkpt>
    <trkpt lat="-33.865924" lon="151.210210"><ele>25.9</ele><time>2026-03-14T08:57:12Z</time></trkpt>
    <trkpt lat="-33.865777" lon="151.210487"><ele>26.4</ele><time>2026-03-14T08:57:24Z</time></trkpt>
    <trkpt lat="-33.865623" lon="151.210759"><ele>26.9</ele><time>2026-03-14T08:57:36Z</time></trkpt>
    <trkpt lat="-33.865464" lon="151.211024"><ele>27.3</ele><time>2026-03-14T08:57:48Z</time></trkpt>
    <trkpt lat="-33.865305" lon="151.211281"><ele>27.8</ele><time>2026-03-14T08:58:00Z</time></trkpt>
    <trkpt lat="-33.865148" lon="151.211527"><ele>28.2</ele><time>2026-03-14T08:58:12Z</time></trkpt>
    <trkpt lat="-33.864998" lon="151.211763"><ele>28.6</ele><time>2026-03-14T08:58:24Z</time></trkpt>
    <trkpt lat="-33.864856" lon="151.211987"><ele>29.1</ele><time>2026-03-14T08:58:36Z</time></trkpt>
    <trkpt lat="-33.864726" lon="151.212199"><ele>29.5</ele><time>2026-03-14T08:58:48Z</time></trkpt>
    <trkpt lat="-33.864610" lon="151.212399"><ele>29.9</ele><time>2026-03-14T08:59:00Z</time></trkpt>
    <trkpt lat="-33.864510" lon="151.212588"><ele>30.2</ele><time>2026-03-14T08:59:12Z</time></trkpt>
    <trkpt lat="-33.864426" lon="151.212766"><ele>30.6</ele><time>2026-03-14T08:59:24Z</time></trkpt>
    <trkpt lat="-33.864359" lon="151.212934"><ele>31.0</ele><time>2026-03-14T08:59:36Z</time></trkpt>
    <trkpt lat="-33.864311" lon="151.213093"><ele>31.3</ele><time>2026-03-14T08:59:48Z</time></trkpt>
    <trkpt lat="-33.864279" lon="151.213244"><ele>31.6</ele><time>2026-03-14T09:00:00Z</time></trkpt>
    <trkpt lat="-33.864265" lon="151.213389"><ele>31.9</ele><time>2026-03-14T09:00:12Z</time></trkpt>
    <trkpt lat="-33.864266" lon="151.213529"><ele>32.2</ele><time>2026-03-14T09:00:24Z</time></trkpt>
    <trkpt lat="-33.864280" lon="151.213665"><ele>32.4</ele><time>2026-03-14T09:00:36Z</time></trkpt>
    <trkpt lat="-33.864307" lon="151.213799"><ele>32.7</ele><time>2026-03-14T09:00:48Z</time></trkpt>
    <trkpt lat="-33.864343" lon="151.213931"><ele>32.9</ele><time>2026-03-14T09:01:00Z</time></trkpt>
    <trkpt lat="-33.864386" lon="151.214063"><ele>33.1</ele><time>2026-03-14T09:01:12Z</time></trkpt>
    <trkpt lat="-33.864434" lon="151.214195"><ele>33.3</ele><time>2026-03-14T09:01:24Z</time></trkpt>
    <trkpt lat="-33.864484" lon="151.214328"><ele>33.5</ele><time>2026-03-14T09:01:36Z</time></trkpt>
    <trkpt lat="-33.864533" lon="151.214462"><ele>33.6</ele><time>2026-03-14T09:01:48Z</time></trkpt>
    <trkpt lat="-33.864579" lon="151.214598"><ele>33.7</ele><time>2026-03-14T09:02:00Z</time></trkpt>
    <trkpt lat="-33.864620" lon="151.214736"><ele>33.8</ele><time>2026-03-14T09:02:12Z</time></trkpt>
    <trkpt lat="-33.864654" lon="151.214875"><ele>33.9</ele><time>2026-03-14T09:02:24Z</time></trkpt>
    <trkpt lat="-33.864679" lon="151.215016"><ele>34.0</ele><time>2026-03-14T09:02:36Z</time></trkpt>
    <trkpt lat="-33.864695" lon="151.215158"><ele>34.0</ele><time>2026-03-14T09:02:48Z</time></trkpt>
    <trkpt lat="-33.864700" lon="151.215300"><ele>34.0</ele><time>2026-03-14T09:03:00Z</time></trkpt>
    <trkpt lat="-33.864695" lon="151.215442"><ele>34.0</ele><time>2026-03-14T09:03:12Z</time></trkpt>
    <trkpt lat="-33.864679" lon="151.215584"><ele>34.0</ele><time>2026-03-14T09:03:24Z</time></trkpt>
    <trkpt lat="-33.864654" lon="151.215725"><ele>33.9</ele><time>2026-03-14T09:03:36Z</time></trkpt>
    <trkpt lat="-33.864620" lon="151.215864"><ele>33.8</ele><time>2026-03-14T09:03:48Z</time></trkpt>
    <trkpt lat="-33.864579" lon="151.216002"><ele>33.7</ele><time>2026-03-14T09:04:00Z</time></trkpt>
    <trkpt lat="-33.864533" lon="151.216138"><ele>33.6</ele><time>2026-03-14T09:04:12Z</time></trkpt>
    <trkpt lat="-33.864484" lon="151.216272"><ele>33.5</ele><time>2026-03-14T09:04:24Z</time></trkpt>
    <trkpt lat="-33.864434" lon="151.216405"><ele>33.3</ele><time>2026-03-14T09:04:36Z</time></trkpt>
    <trkpt lat="-33.864386" lon="151.216537"><ele>33.1</ele><time>2026-03-14T09:04:48Z</time></trkpt>
    <trkpt lat="-33.864343" lon="151.216669"><ele>32.9</ele><time>2026-03-14T09:05:00Z</time></trkpt>
    <trkpt lat="-33.864307" lon="151.216801"><ele>32.7</ele><time>2026-03-14T09:05:12Z</time></trkpt>
    <trkpt lat="-33.864280" lon="151.216935"><ele>32.4</ele><time>2026-03-14T09:05:24Z</time></trkpt>
    <trkpt lat="-33.864266" lon="151.217071"><ele>32.2</ele><time>2026-03-14T09:05:36Z</time></trkpt>
    <trkpt lat="-33.864265" lon="151.217211"><ele>31.9</ele><time>2026-03-14T09:05:48Z</time></trkpt>
    <trkpt lat="-33.864279" lon="151.217356"><ele>31.6</ele><time>2026-03-14T09:06:00Z</time></trkpt>
    <trkpt lat="-33.864311" lon="151.217507"><ele>31.3</ele><time>2026-03-14T09:06:12Z</time></trkpt>
    <trkpt lat="-33.864359" lon="151.217666"><ele>31.0</ele><time>2026-03-14T09:06:24Z</time></trkpt>
    <trkpt lat="-33.864426" lon="151.217834"><ele>30.6</ele><time>2026-03-14T09:06:36Z</time></trkpt>
    <trkpt lat="-33.864510" lon="151.218012"><ele>30.2</ele><time>2026-03-14T09:06:48Z</time></trkpt>
    <trkpt lat="-33.864610" lon="151.218201"><ele>29.9</ele><time>2026-03-14T09:07:00Z</time></trkpt>
    <trkpt lat="-33.864726" lon="151.218401"><ele>29.5</ele><time>2026-03-14T09:07:12Z</time></trkpt>
    <trkpt lat="-33.864856" lon="151.218613"><ele>29.1</ele><time>2026-03-14T09:07:24Z</time></trkpt>
    <trkpt lat="-33.864998" lon="151.218837"><ele>28.6</ele><time>2026-03-14T09:07:36Z</time></trkpt>
    <trkpt lat="-33.865148" lon="151.219073"><ele>28.2</ele><time>2026-03-14T09:07:48Z</time></trkpt>
    <trkpt lat="-33.865305" lon="151.219319"><ele>27.8</ele><time>2026-03-14T09:08:00Z</time></trkpt>
    <trkpt lat="-33.865464" lon="151.219576"><ele>27.3</ele><time>2026-03-14T09:08:12Z</time></trkpt>
    <trkpt lat="-33.865623" lon="151.219841"><ele>26.9</ele><time>2026-03-14T09:08:24Z</time></trkpt>
    <trkpt lat="-33.865777" lon="151.220113"><ele>26.4</ele><time>2026-03-14T09:08:36Z</time></trkpt>
    <trkpt lat="-33.865924" lon="151.220390"><ele>25.9</ele><time>2026-03-14T09:08:48Z</time></trkpt>
    <trkpt lat="-33.866060" lon="151.220670"><ele>25.4</ele><time>2026-03-14T09:09:00Z</time></trkpt>
    <trkpt lat="-33.866182" lon="151.220950"><ele>25.0</ele><time>2026-03-14T09:09:12Z</time></trkpt>
    <trkpt lat="-33.866286" lon="151.221228"><ele>24.5</ele><time>2026-03-14T09:09:24Z</time></trkpt>
    <trkpt lat="-33.866370" lon="151.221502"><ele>24.0</ele><time>2026-03-14T09:09:36Z</time></trkpt>
    <trkpt lat="-33.866432" lon="151.221767"><ele>23.5</ele><time>2026-03-14T09:09:48Z</time></trkpt>
    <trkpt lat="-33.866469" lon="151.222022"><ele>23.0</ele><time>2026-03-14T09:10:00Z</time></trkpt>
    <trkpt lat="-33.866481" lon="151.222265"><ele>22.5</ele><time>2026-03-14T09:10:12Z</time></trkpt>
    <trkpt lat="-33.866466" lon="151.222493"><ele>22.0</ele><time>2026-03-14T09:10:24Z</time></trkpt>
    <trkpt lat="-33.866424" lon="151.222703"><ele>21.5</ele><time>2026-03-14T09:10:36Z</time></trkpt>
    <trkpt lat="-33.866355" lon="151.222895"><ele>21.0</ele><time>2026-03-14T09:10:48Z</time></trkpt>
    <trkpt lat="-33.866259" lon="151.223066"><ele>20.6</ele><time>2026-03-14T09:11:00Z</time></trkpt>
    <trkpt lat="-33.866139" lon="151.223217"><ele>20.1</ele><time>2026-03-14T09:11:12Z</time></trkpt>
    <trkpt lat="-33.865996" lon="151.223345"><ele>19.6</ele><time>2026-03-14T09:11:24Z</time></trkpt>
    <trkpt lat="-33.865830" lon="151.223452"><ele>19.1</ele><time>2026-03-14T09:11:36Z</time></trkpt>
    <trkpt lat="-33.865646" lon="151.223538"><ele>18.7</ele><time>2026-03-14T09:11:48Z</time></trkpt>
    <trkpt lat="-33.865446" lon="151.223603"><ele>18.2</ele><time>2026-03-14T09:12:00Z</time></trkpt>
    <trkpt lat="-33.865232" lon="151.223649"><ele>17.8</ele><time>2026-03-14T09:12:12Z</time></trkpt>
    <trkpt lat="-33.865007" lon="151.223677"><ele>17.4</ele><time>2026-03-14T09:12:24Z</time></trkpt>
    <trkpt lat="-33.864775" lon="151.223691"><ele>16.9</ele><time>2026-03-14T09:12:36Z</time></trkpt>
    <trkpt lat="-33.864539" lon="151.223691"><ele>16.5</ele><time>2026-03-14T09:12:48Z</time></trkpt>
    <trkpt lat="-33.864300" lon="151.223680"><ele>16.1</ele><time>2026-03-14T09:13:00Z</time></trkpt>
    <trkpt lat="-33.864063" lon="151.223662"><ele>15.8</ele><time>2026-03-14T09:13:12Z</time></trkpt>
    <trkpt lat="-33.863829" lon="151.223638"><ele>15.4</ele><time>2026-03-14T09:13:24Z</time></trkpt>
    <trkpt lat="-33.863601" lon="151.223613"><ele>15.0</ele><time>2026-03-14T09:13:36Z</time></trkpt>
    <trkpt lat="-33.863380" lon="151.223587"><ele>14.7</ele><time>2026-03-14T09:13:48Z</time></trkpt>
    <trkpt lat="-33.863168" lon="151.223564"><ele>14.4</ele><time>2026-03-14T09:14:00Z</time></trkpt>
    <trkpt lat="-33.862966" lon="151.223547"><ele>14.1</ele><time>2026-03-14T09:14:12Z</time></trkpt>
    <trkpt lat="-33.862775" lon="151.223536"><ele>13.8</ele><time>2026-03-14T09:14:24Z</time></trkpt>
    <trkpt lat="-33.862595" lon="151.223533"><ele>13.6</ele><time>2026-03-14T09:14:36Z</time></trkpt>
    <trkpt lat="-33.862426" lon="151.223540"><ele>13.3</ele><time>2026-03-14T09:14:48Z</time></trkpt>
    <trkpt lat="-33.862268" lon="151.223557"><ele>13.1</ele><time>2026-03-14T09:15:00Z</time></trkpt>
    <trkpt lat="-33.862119" lon="151.223584"><ele>12.9</ele><time>2026-03-14T09:15:12Z</time></trkpt>
    <trkpt lat="-33.861980" lon="151.223621"><ele>12.7</ele><time>2026-03-14T09:15:24Z</time></trkpt>
    <trkpt lat="-33.861848" lon="151.223667"><ele>12.5</ele><time>2026-03-14T09:15:36Z</time></trkpt>
    <trkpt lat="-33.861723" lon="151.223721"><ele>12.4</ele><time>2026-03-14T09:15:48Z</time></trkpt>
    <trkpt lat="-33.861603" lon="151.223782"><ele>12.3</ele><time>2026-03-14T09:16:00Z</time></trkpt>
    <trkpt lat="-33.861486" lon="151.223848"><ele>12.2</ele><time>2026-03-14T09:16:12Z</time></trkpt>
    <trkpt lat="-33.861371" lon="151.223916"><ele>12.1</ele><time>2026-03-14T09:16:24Z</time></trkpt>
    <trkpt lat="-33.861257" lon="151.223984"><ele>12.0</ele><time>2026-03-14T09:16:36Z</time></trkpt>
    <trkpt lat="-33.861142" lon="151.224051"><ele>12.0</ele><time>2026-03-14T09:16:48Z</time></trkpt>
    <trkpt lat="-33.861025" lon="151.224112"><ele>12.0</ele><time>2026-03-14T09:17:00Z</time></trkpt>
    <trkpt lat="-33.860906" lon="151.224167"><ele>12.0</ele><time>2026-03-14T09:17:12Z</time></trkpt>
    <trkpt lat="-33.860783" lon="151.224213"><ele>12.0</ele><time>2026-03-14T09:17:24Z</time></trkpt>
    <trkpt lat="-33.860656" lon="151.224247"><ele>12.1</ele><time>2026-03-14T09:17:36Z</time></trkpt>
    <trkpt lat="-33.860525" lon="151.224270"><ele>12.2</ele><time>2026-03-14T09:17:48Z</time></trkpt>
    <trkpt lat="-33.860390" lon="151.224278"><ele>12.3</ele><time>2026-03-14T09:18:00Z</time></trkpt>
    <trkpt lat="-33.860252" lon="151.224272"><ele>12.4</ele><time>2026-03-14T09:18:12Z</time></trkpt>
    <trkpt lat="-33.860110" lon="151.224252"><ele>12.5</ele><time>2026-03-14T09:18:24Z</time></trkpt>
    <trkpt lat="-33.859965" lon="151.224217"><ele>12.7</ele><time>2026-03-14T09:18:36Z</time></trkpt>
    <trkpt lat="-33.859818" lon="151.224169"><ele>12.9</ele><time>2026-03-14T09:18:48Z</time></trkpt>
    <trkpt lat="-33.859671" lon="151.224109"><ele>13.1</ele><time>2026-03-14T09:19:00Z</time></trkpt>
    <trkpt lat="-33.859524" lon="151.224039"><ele>13.3</ele><time>2026-03-14T09:19:12Z</time></trkpt>
    <trkpt lat="-33.859377" lon="151.223961"><ele>13.6</ele><time>2026-03-14T09:19:24Z</time></trkpt>
    <trkpt lat="-33.859233" lon="151.223878"><ele>13.8</ele><time>2026-03-14T09:19:36Z</time></trkpt>
    <trkpt lat="-33.859092" lon="151.223794"><ele>14.1</ele><time>2026-03-14T09:19:48Z</time></trkpt>
    <trkpt lat="-33.858954" lon="151.223711"><ele>14.4</ele><time>2026-03-14T09:20:00Z</time></trkpt>
    <trkpt lat="-33.858822" lon="151.223633"><ele>14.7</ele><time>2026-03-14T09:20:12Z</time></trkpt>
    <trkpt lat="-33.858694" lon="151.223565"><ele>15.0</ele><time>2026-03-14T09:20:24Z</time></trkpt>
    <trkpt lat="-33.858572" lon="151.223509"><ele>15.4</ele><time>2026-03-14T09:20:36Z</time></trkpt>
    <trkpt lat="-33.858456" lon="151.223470"><ele>15.8</ele><time>2026-03-14T09:20:48Z</time></trkpt>
    <trkpt lat="-33.858345" lon="151.223450"><ele>16.1</ele><time>2026-03-14T09:21:00Z</time></trkpt>
    <trkpt lat="-33.858239" lon="151.223452"><ele>16.5</ele><time>2026-03-14T09:21:12Z</time></trkpt>
    <trkpt lat="-33.858138" lon="151.223479"><ele>16.9</ele><time>2026-03-14T09:21:24Z</time></trkpt>
    <trkpt lat="-33.858041" lon="151.223533"><ele>17.4</ele><time>2026-03-14T09:21:36Z</time></trkpt>
    <trkpt lat="-33.857947" lon="151.223616"><ele>17.8</ele><time>2026-03-14T09:21:48Z</time></trkpt>
    <trkpt lat="-33.857855" lon="151.223728"><ele>18.2</ele><time>2026-03-14T09:22:00Z</time></trkpt>
    <trkpt lat="-33.857764" lon="151.223868"><ele>18.7</ele><time>2026-03-14T09:22:12Z</time></trkpt>
    <trkpt lat="-33.857673" lon="151.224038"><ele>19.1</ele><time>2026-03-14T09:22:24Z</time></trkpt>
    <trkpt lat="-33.857580" lon="151.224235"><ele>19.6</ele><time>2026-03-14T09:22:36Z</time></trkpt>
    <trkpt lat="-33.857484" lon="151.224457"><ele>20.1</ele><time>2026-03-14T09:22:48Z</time></trkpt>
    <trkpt lat="-33.857385" lon="151.224702"><ele>20.6</ele><time>2026-03-14T09:23:00Z</time></trkpt>
    <trkpt lat="-33.857281" lon="151.224966"><ele>21.0</ele><time>2026-03-14T09:23:12Z</time></trkpt>
    <trkpt lat="-33.857171" lon="151.225246"><ele>21.5</ele><time>2026-03-14T09:23:24Z</time></trkpt>
    <trkpt lat="-33.857054" lon="151.225538"><ele>22.0</ele><time>2026-03-14T09:23:36Z</time></trkpt>
    <trkpt lat="-33.856931" lon="151.225836"><ele>22.5</ele><time>2026-03-14T09:23:48Z</time></trkpt>
  </trkseg></trk>
</gpx>
